imo,ism_name,ism_imo,ism_address,owner_name,owner_imo,owner_address,commercial_name,commercial_imo,commercial_address
9282041,SERTEL SHIPPING FZE,0024231,"Office E2-123F-53, PI-ELOB, Hamriyah Free Zone, Sharjah, United Arab Emirates.",NEO SHIPPING INC,6499774,"Trust Company Complex, Ajeltake Road, Ajeltake, Majuro MH 96960, Marshall Islands.",NEO SHIPPING INC,6499774,"Trust Company Complex, Ajeltake Road, Ajeltake, Majuro MH 96960, Marshall Islands."
9368223,VIJAYNAGAR VOYAGE SHIPPING PVT,0118850,"Unit 407, In Tower, Supertech Capetown, Sector 74, Noida, Dist Gautam Budh Nagar, Uttar Pradesh, 201301, India.",SIRAJ MARITIME LLC,0286631,"C/O: Vijaynagar Voyage Shipping Pvt Ltd Unit 407, In Tower, Supertech Capetown, Sector 74, Noida, Dist Gautam Budh Nagar, Uttar Pradesh, 201301, India.",VIJAYNAGAR VOYAGE SHIPPING PVT,0118850,"Unit 407, In Tower, Supertech Capetown, Sector 74, Noida, Dist Gautam Budh Nagar, Uttar Pradesh, 201301, India."
9231767,FMG DENIZCILIK SANAYI VE TIC,6350961,"Cumhuriyet Caddesi 167/4, Icadiye Mah, Selamiali, 34674, Istanbul, Turkey.",GLOBAL SHIPPING HOLDING LTD,6480611,"C/O: Oceanpack Ship Management Pvt Ltd Office A154, Plot 42A, Balaji Bhavan, Sector 11, CBD Belapur, Navi Mumbai, Maharashtra, 400614, India.",OCEANPACK SHIP MANAGEMENT PVT,0047958,"Office A154, Plot 42A, Balaji Bhavan, Sector 11, CBD Belapur, Navi Mumbai, Maharashtra, 400614, India."
9234666,JOYGUIDE SHIPPING MANAGEMENT,0195989,"Shanghai, China.",U BEACON SHIPPING CO LTD,0200588,"C/O: Nova Shipping Management Co Ltd Shanghai, China.",NOVA SHIPPING MANAGEMENT CO,0195975,"Shanghai, China."
9254862,BABYLON NAVIGATION DMCC,6204848,"Unit 2502, Preatoni Tower, Cluster L2, Jumeirah Lakes Towers, Dubai, United Arab Emirates.",TRYFO NAVIGATION INC,6206331,"C/O: Babylon Navigation DMCC Unit 2502, Preatoni Tower, Cluster L2, Jumeirah Lakes Towers, Dubai, United Arab Emirates.",BABYLON NAVIGATION DMCC,6204848,"Unit 2502, Preatoni Tower, Cluster L2, Jumeirah Lakes Towers, Dubai, United Arab Emirates."
9353125,HUBAL MARINE SHIP MANAGEMENT,6474016,"Office 5 & 6, 1st Floor, Shree Dattatray Tower, near Railway Station / Jain Mandir, Badlapur (W), Maharashtra, Mumbai, 421501, India.",ZHAO YAO SHIPPING LTD,0111089,"Room 18, Ho King Commercial Centre, 2-16, Fa Yuen Street, Mong Kok, Kowloon, Hong Kong, China.",ZHAO YAO SHIPPING LTD,0111089,"Room 18, Ho King Commercial Centre, 2-16, Fa Yuen Street, Mong Kok, Kowloon, Hong Kong, China."
9323314,LUMEN SHIP MANAGEMENT - FZCO,0019646,"Unit 405, 4th Floor, Jumeirah Business Center 5, Jumeirah Lakes Towers, Dubai, United Arab Emirates.",CENTAURI SERVICES LLC,0110029,"C/O: Lumen Ship Management - FZCO Unit 405, 4th Floor, Jumeirah Business Center 5, Jumeirah Lakes Towers, Dubai, United Arab Emirates.",CENTAURI SERVICES LLC,0110029,"C/O: Lumen Ship Management - FZCO Unit 405, 4th Floor, Jumeirah Business Center 5, Jumeirah Lakes Towers, Dubai, United Arab Emirates."
9242223,CHEMUL SHIPS MANAGEMENT CO LTD,6149195,"Room 2401, Block C, 6, Changning Lu, Shibei Qu, Qingdao, Shandong, 266000, China.",SYMI SHIPPING LTD,6186182,"80, Broad Street, Monrovia, Liberia.",SYMI SHIPPING LTD,6186182,"80, Broad Street, Monrovia, Liberia."
9328170,UNKNOWN,9991001,Unknown,WRASSE SHIP CO,6467703,"C/O: The Zulu Ships Management & Operation - Sole Proprietorship LLC Office 105, Madinat Zayed Tower, Muroor Road, Abu Dhabi, United Arab Emirates.",ZULU SHIPS MANAGEMENT,6509771,"Office 105, Madinat Zayed Tower, Muroor Road, Abu Dhabi, United Arab Emirates."
9310707,EAST GEMI ISLETMECILIGI AS,0026325,"Ic Kapi 111, A Blok, Hukukcular Towers, Mustafa Kemal Caddesi 66A, Cevizli Mah, Kartal, 34865, Istanbul, Turkey.",VAULT MARITIME & TRADING LTD,0020839,"C/O: Tokyo Gemi Isletmeciligi AS Daire 55, Kat 15, Beybi Giz Plaza, Maslak Meydan Sokak, Maslak Mah, 1, Sariyer, 34398, Istanbul, Turkey.",TOKYO GEMI ISLETMECILIGI AS,6477881,"Daire 55, Kat 15, Beybi Giz Plaza, Maslak Meydan Sokak, Maslak Mah, 1, Sariyer, 34398, Istanbul, Turkey."
8894536,SEA ENGINEERING LTD,5103516,"Ofis 2302, Liter A, Korpus 2, Room 15H, prospekt Stachek 48, St Petersburg, 198097, Russia.",LUKOIL-BUNKER,5147094,"Lit A, naberezhnaya Aptekarskaya 8, St Petersburg, 197022, Russia.",LUKOIL-BUNKER,5147094,"Lit A, naberezhnaya Aptekarskaya 8, St Petersburg, 197022, Russia."
9337389,LAZAR SHIPPING LLC-FZ,6381455,"M012, Khalifa B A Balila Building, Abu Hail Road, Dubai, United Arab Emirates.",IRTYSH SHIPPING INC,6111893,"C/O: Oceanlink Maritime DMCC Unit 2808, Plot JLT-PH1-F2A, HDS Tower, Jumeirah Lakes Towers, Dubai, United Arab Emirates.",OCEANLINK MARITIME DMCC,6450979,"Unit 2808, Plot JLT-PH1-F2A, HDS Tower, Jumeirah Lakes Towers, Dubai, United Arab Emirates."
9314167,UNKNOWN,9991001,Unknown,ATBARA MARITIME CORP,6466002,"1st Floor, Dekk House, Zippora Street, Providence Industrial Estate, Victoria, Mahe Island, Seychelles.",ATBARA MARITIME CORP,6466002,"1st Floor, Dekk House, Zippora Street, Providence Industrial Estate, Victoria, Mahe Island, Seychelles."
9232888,NAUTILUS FLEET MANAGEMENT LLC,0055927,"Apartment 31, Building 2, Estate 41, AZ 5006, Sumqayit Azerbaijan.",ALVIDO CHARTERING LTD,6376415,"C/O: 'Aegis Voyage Shipmanagement' LLC Apartment 6, House 34, Block 18, Heydar Aliyev Avenue AZ 5000, Sumqayit Azerbaijan.",NAUTILUS FLEET MANAGEMENT LLC,0055927,"Apartment 31, Building 2, Estate 41, AZ 5006, Sumqayit Azerbaijan."
9842190,ROSNEFTEFLOT JSC,3025603,"Presnenskaya naberezhnaya 6/2, Moscow, 123112, Russia.",ROSNEFTEFLOT JSC,3025603,"Presnenskaya naberezhnaya 6/2, Moscow, 123112, Russia.",ROSNEFTEFLOT JSC,3025603,"Presnenskaya naberezhnaya 6/2, Moscow, 123112, Russia."
9258167,AURINA DENIZCILIK VE TICARET,0300361,"Ic Kapi 188, Quasar 76, Buyukdere Caddesi Fulya Mah, Sisli, 34381, Istanbul, Turkey.",SAPPHIRE MARITIME LTD,0049662,"C/O: Golden Gate Ship Management Ltd Blok N, Apartmani A, Loft Residence, Buyukdere Caddesi 201/40, Esentepe Mah, Sisli, Istanbul, Turkey.",WESTANKER DENIZCILIK VE TIC,6475500,"A Blok, Loft Residance, Buyukdere Caddesi 201/40, Esentepe Mah, Sisli, Istanbul, Turkey."
9435337,ENEYA LLC,6267148,"Room 18, Building 29, ulitsa Chkalova, derevnya Olya, Olinskiy sel'sovet, Limanskiy, Astrakhan, 416425, Russia.",SBK DOLINA LLC,6218759,"C/O: 'Eneya' LLC Room 18, Building 29, ulitsa Chkalova, derevnya Olya, Olinskiy sel'sovet, Limanskiy, Astrakhan, 416425, Russia.",ENEYA LLC,6267148,"Room 18, Building 29, ulitsa Chkalova, derevnya Olya, Olinskiy sel'sovet, Limanskiy, Astrakhan, 416425, Russia."
9213313,BEACON MARINE SERVICES CO,0182311,"Unit 1001, 10th Floor, Kesar Solitaire, Sector 19, Palm Beach Road, Navi Mumbai, Maharashtra, 400705, India.",ALBEDO SHIPPING LTD,6460975,"C/O: Upgard Management Services SA Office B, 2nd Floor, Plot 112, Phase 1, Udyog Vihar, Gurugram, Haryana, 122016, India.",ALBEDO SHIPPING LTD,6460975,"C/O: Upgard Management Services SA Office B, 2nd Floor, Plot 112, Phase 1, Udyog Vihar, Gurugram, Haryana, 122016, India."
9273260,BABYLON NAVIGATION DMCC,6204848,"Unit 2502, Preatoni Tower, Cluster L2, Jumeirah Lakes Towers, Dubai, United Arab Emirates.",ABACUS SHIPPING INC,6406857,"C/O: Babylon Navigation DMCC Unit 2502, Preatoni Tower, Cluster L2, Jumeirah Lakes Towers, Dubai, United Arab Emirates.",BABYLON NAVIGATION DMCC,6204848,"Unit 2502, Preatoni Tower, Cluster L2, Jumeirah Lakes Towers, Dubai, United Arab Emirates."
9385142,NORTH FLEET LTD,0233414,"Kab 10, pom 7-H, Liter A, ul Vasi Alekseyeva 14, St Petersburg, 198188, Russia.",MANDOLIN SHIPPING LTD,0097314,"C/O: North Fleet Ltd Kab 10, pom 7-H, Liter A, ul Vasi Alekseyeva 14, St Petersburg, 198188, Russia.",NORTH FLEET LTD,0233414,"Kab 10, pom 7-H, Liter A, ul Vasi Alekseyeva 14, St Petersburg, 198188, Russia."
9244635,AUSTINSHIP MANAGEMENT PVT LTD,6140568,"Shop 048FF, Builders Scheme, Omaxe Arcade, 94, Ansal Golf Link -1, Noida, Dist Gautam Budh Nagar, Uttar Pradesh, 201308, India.",CAPELLA SHIPPING LTD-SEY,6149249,"C/O: Austinship Management Pvt Ltd Shop 048FF, Builders Scheme, Omaxe Arcade, 94, Ansal Golf Link -1, Noida, Dist Gautam Budh Nagar, Uttar Pradesh, 201308, India.",AUSTINSHIP MANAGEMENT PVT LTD,6140568,"Shop 048FF, Builders Scheme, Omaxe Arcade, 94, Ansal Golf Link -1, Noida, Dist Gautam Budh Nagar, Uttar Pradesh, 201308, India."
9292204,NOVA SHIPMANAGEMENT LLC-FZ,0055652,"6th Floor, Meydan Grandstand, Al Meydan Road, Nad Al Sheba, Dubai, United Arab Emirates.",CITRINE MARINE SPC,0138716,"C/O: Nova Shipmanagement LLC-FZ 6th Floor, Meydan Grandstand, Al Meydan Road, Nad Al Sheba, Dubai, United Arab Emirates.",NOVA SHIPMANAGEMENT LLC-FZ,0055652,"6th Floor, Meydan Grandstand, Al Meydan Road, Nad Al Sheba, Dubai, United Arab Emirates."
9235713,DEGONIA CO LTD,6389623,"Unit 402, 4 Block, B area, 11, Chunguang Lu, Jiyang Qu, Sanya, 572099, China.",GARDEN DOMAIN LTD,6121807,"C/O: Sunne Co Ltd Room 35-09, Fuli Center, 6, Gangxing Lu, Zhongshan Qu, Dalian, Liaoning, China.",DEGONIA CO LTD,6389623,"Unit 402, 4 Block, B area, 11, Chunguang Lu, Jiyang Qu, Sanya, 572099, China."
9257993,UNKNOWN,9991001,Unknown,SHANGHAI VIII MARITIME CO,0077784,"80, Broad Street, Monrovia, Liberia.",SHANGHAI VIII MARITIME CO,0077784,"80, Broad Street, Monrovia, Liberia."
9365764,AMAYA SHIP MANAGEMENT LLP,0114450,"Shop 6A, Ground Floor, NBC Complex, Sector 11, CBD Belapur, Navi Mumbai, Maharashtra, 400614, India.",SUBAK PLANT LTD,0212912,"Suite 134, Kings Park, Newtown Barracks, Belize City, Belize.",SUBAK PLANT LTD,0212912,"Suite 134, Kings Park, Newtown Barracks, Belize City, Belize."
9308778,UNKNOWN,9991001,Unknown,AMELIE LTD,6175903,"C/O: Delnaz Ship Management Sdn Bhd 5433-1, Jalan J9, Taman Melawati, 53100, Kuala Lumpur, Malaysia.",ESPOIR SHIPPING LTD,0094544,"Room 2108, 21st Floor, C C WU Building, 302-308, Hennessy Road, Wan Chai, Hong Kong, China."
9182291,VALIANT MARINE VENTURES FZE,6268870,"X2-49, 3rd Floor, SAIF Suite, al-Dhaid Road, SAIF Zone, Sharjah, United Arab Emirates.",AMOR FLEET INC,6401357,"C/O: Valiant Marine Ventures FZE X2-49, 3rd Floor, SAIF Suite, al-Dhaid Road, SAIF Zone, Sharjah, United Arab Emirates.",VALIANT MARINE VENTURES FZE,6268870,"X2-49, 3rd Floor, SAIF Suite, al-Dhaid Road, SAIF Zone, Sharjah, United Arab Emirates."
9413547,NOVA SHIPMANAGEMENT LLC-FZ,0055652,"6th Floor, Meydan Grandstand, Al Meydan Road, Nad Al Sheba, Dubai, United Arab Emirates.",CITRINE MARINE SPC,0138716,"C/O: Nova Shipmanagement LLC-FZ 6th Floor, Meydan Grandstand, Al Meydan Road, Nad Al Sheba, Dubai, United Arab Emirates.",NOVA SHIPMANAGEMENT LLC-FZ,0055652,"6th Floor, Meydan Grandstand, Al Meydan Road, Nad Al Sheba, Dubai, United Arab Emirates."
9610808,SOUTH FLEET LTD,6450877,"Kab 3, Pom 7-H, Liter A, ul Vasi Alekseyeva 14, St Petersburg, 198188, Russia.",SANDOY SHIPPING LTD,5704511,"C/O: Oil Tankers (SCF) Management - FZCO Unit 27610 - 001, Building A1, IFZA Business Park, DDP, Dubai Silicon Oasis, Dubai, United Arab Emirates.",OIL TANKERS SCF MGMT FZCO,6396404,"Unit 27610 - 001, Building A1, IFZA Business Park, DDP, Dubai Silicon Oasis, Dubai, United Arab Emirates."
9326885,FLEET TANQO PVT LTD,0261023,"Office 2001, 20th Floor, G-Square Business Park, Plot 25/26, Sector 30, Vashi, Navi Mumbai, Maharashtra, 400703, India.",ZAFFERANO TRADING LTD,6467252,"C/O: Fleet Tanqo Pvt Ltd Office 2001, 20th Floor, G-Square Business Park, Plot 25/26, Sector 30, Vashi, Navi Mumbai, Maharashtra, 400703, India.",FLEET TANQO PVT LTD,0261023,"Office 2001, 20th Floor, G-Square Business Park, Plot 25/26, Sector 30, Vashi, Navi Mumbai, Maharashtra, 400703, India."
9354521,HARRY VICTOR SHIP MGMT & OP,6142171,"Room 213, Atrium Centre, Khalid Bin Waleed Road, (Bank Street), PO Box 44432, Dubai, United Arab Emirates.",ANHONA NAVIGATION SA,6082772,"C/O: Harry Victor Ship Management & Operation LLC Room 213, Atrium Centre, Khalid Bin Waleed Road, (Bank Street), PO Box 44432, Dubai, United Arab Emirates.",HARRY VICTOR SHIP MGMT & OP,6142171,"Room 213, Atrium Centre, Khalid Bin Waleed Road, (Bank Street), PO Box 44432, Dubai, United Arab Emirates."
9417464,FLEETOR SHIP MANAGEMENT FZ-LLC,0154296,"FOAM1677, Compass Building, Al Shohada Road, Al Hamra Industrial Zone, Ras al Khaimah, United Arab Emirates.",ANIKA LINES INC,6503450,"Trust Company Complex, Ajeltake Road, Ajeltake, Majuro MH 96960, Marshall Islands.",ANIKA LINES INC,6503450,"Trust Company Complex, Ajeltake Road, Ajeltake, Majuro MH 96960, Marshall Islands."
9413559,INVEST FLEET LTD,6460140,"Kab 18, Pom 7-H, Liter A, ul Vasi Alekseyeva 14, St Petersburg, 198188, Russia.",NS ANTARCTIC SHIPPING INC,5465899,"C/O: Stream Ship Management FZCO DDP 27700-001, Dubai Silicon Oasis, PO Box 342001, Dubai, United Arab Emirates.",INVEST FLEET LTD,6460140,"Kab 18, Pom 7-H, Liter A, ul Vasi Alekseyeva 14, St Petersburg, 198188, Russia."
9381744,UNKNOWN,9991001,Unknown,HS LEGEND LTD,6354261,"80, Broad Street, Monrovia, Liberia.",HS LEGEND LTD,6354261,"80, Broad Street, Monrovia, Liberia."
9402471,RI YUE SHAN SHIPMANAGEMENT CO,0137240,"Room 1007, 578, Minfu Lu, Yangpu Qu, Shanghai, China.",TULIA MARITIME INC,0256646,"C/O: Xuan Wu Hu Shipmanagement Co Ltd Room 101, 337, Shahe Lu, Jiading Qu, Shanghai, 200000, China.",XUAN WU HU SHIPMANAGEMENT CO,0113859,"Room 101, 337, Shahe Lu, Jiading Qu, Shanghai, 200000, China."
9433016,ZULU SHIPS MANAGEMENT,6509771,"Office 105, Madinat Zayed Tower, Muroor Road, Abu Dhabi, United Arab Emirates.",BRAIN WAVE SHIP LTD,6467717,"C/O: The Zulu Ships Management & Operation - Sole Proprietorship LLC Office 105, Madinat Zayed Tower, Muroor Road, Abu Dhabi, United Arab Emirates.",ZULU SHIPS MANAGEMENT,6509771,"Office 105, Madinat Zayed Tower, Muroor Road, Abu Dhabi, United Arab Emirates."
9299745,UNKNOWN,9991001,Unknown,JULIUS CAPITAL LLC,6497747,"Sharjah Media City, Sharjah, United Arab Emirates.",JULIUS CAPITAL LLC,6497747,"Sharjah Media City, Sharjah, United Arab Emirates."
9280885,OCCEE CO LTD,6324730,"Room 1001, Building 1, Zhihuigu, 237, Xueyuan Lu, Donggang Qu, Rizhao, Shandong, 276825, China.",NANGLE JILLI LTD,6332916,"Room 1802B, Fortress Tower, 250, King's Road, North Point, Hong Kong, China.",NANGLE JILLI LTD,6332916,"Room 1802B, Fortress Tower, 250, King's Road, North Point, Hong Kong, China."
9282792,UNKNOWN,9991001,Unknown,VICENS MARINE CO,0356257,"Trust Company Complex, Ajeltake Road, Ajeltake, Majuro MH 96960, Marshall Islands.",VICENS MARINE CO,0356257,"Trust Company Complex, Ajeltake Road, Ajeltake, Majuro MH 96960, Marshall Islands."
9332781,TRIVIALITY SHIPPING LLC,0194685,"4th Floor, Fifty One Tower, Marasi Drive, Dubai, United Arab Emirates.",YUKAI LTD,6508787,"3rd Floor, Standard Chartered Tower, Cybercity, Ebene, Mauritius.",YUKAI LTD,6508787,"3rd Floor, Standard Chartered Tower, Cybercity, Ebene, Mauritius."
9299769,UNKNOWN,9991001,Unknown,CELESTIAL STAR CORP,6437253,"Suite 10, 3rd Floor, La Ciotat, Mont Fleuri, Mahe Island Seychelles.",CELESTIAL STAR CORP,6437253,"Suite 10, 3rd Floor, La Ciotat, Mont Fleuri, Mahe Island Seychelles."
9281152,OCCEE CO LTD,6324730,"Room 1001, Building 1, Zhihuigu, 237, Xueyuan Lu, Donggang Qu, Rizhao, Shandong, 276825, China.",LINNET MARGUERITE LTD,6332981,"6th Floor, One Harbourfront, 18, Tak Fung Street, Hung Hom, Kowloon, Hong Kong, China.",LINNET MARGUERITE LTD,6332981,"6th Floor, One Harbourfront, 18, Tak Fung Street, Hung Hom, Kowloon, Hong Kong, China."
9288734,ANCHOR ELITE SHIPMANAGEMENT,6462866,"Apartment 9, House 20/33, M/D 3, Sumqayit Azerbaijan.",PEARL CASCADE CORP,6464995,"Suite 10, 3rd Floor, La Ciotat, Mont Fleuri, Mahe Island Seychelles.",PEARL CASCADE CORP,6464995,"Suite 10, 3rd Floor, La Ciotat, Mont Fleuri, Mahe Island Seychelles."
9413573,DREAMER SHIPMANAGEMENT LLC-FZ,0032244,"6th Floor, Meydan Grandstand, Al Meydan Road, Nad Al Sheba, Dubai, United Arab Emirates.",SERPENTINE MARINE SPC,0138693,"C/O: Dreamer Shipmanagement LLC-FZ 6th Floor, Meydan Grandstand, Al Meydan Road, Nad Al Sheba, Dubai, United Arab Emirates.",DREAMER SHIPMANAGEMENT LLC-FZ,0032244,"6th Floor, Meydan Grandstand, Al Meydan Road, Nad Al Sheba, Dubai, United Arab Emirates."
9321847,SUNNE CO LTD,6304105,"Room 35-09, Fuli Center, 6, Gangxing Lu, Zhongshan Qu, Dalian, Liaoning, China.",POLLY ROBBIN LTD,6319283,"C/O: Sunne Co Ltd Room 35-09, Fuli Center, 6, Gangxing Lu, Zhongshan Qu, Dalian, Liaoning, China.",SUNNE CO LTD,6304105,"Room 35-09, Fuli Center, 6, Gangxing Lu, Zhongshan Qu, Dalian, Liaoning, China."
9174397,UNKNOWN,9991001,Unknown,ARES SHIPPING LTD,6480761,"Room 3B, Level 3, Silver Centre, 351 & 353, King's Road, North Point, Hong Kong, China.",ARES SHIPPING LTD,6480761,"Room 3B, Level 3, Silver Centre, 351 & 353, King's Road, North Point, Hong Kong, China."
9397559,NORTH FLEET LTD,0233414,"Kab 10, pom 7-H, Liter A, ul Vasi Alekseyeva 14, St Petersburg, 198188, Russia.",BURGUNDY SHIPPING CORP,0108385,"C/O: Fornax Ship Management - FZCO Unit 40260-001, Building A1, IFZA Business Park, DDP, Dubai Silicon Oasis, Dubai, United Arab Emirates.",FORNAX SHIP MANAGEMENT,6466241,"Unit 40260-001, Building A1, IFZA Business Park, DDP, Dubai Silicon Oasis, Dubai, United Arab Emirates."
9327360,MARITIME SHIP TRADE CO,0250298,"Istanbul, Turkey.",ROBIN MARINE CO,0254327,"C/O: Maritime Ship Trade Co Istanbul, Turkey.",MARITIME SHIP TRADE CO,0250298,"Istanbul, Turkey."
9397547,UNKNOWN,9991001,Unknown,VIKSEN TRANSPORTS CORP,0057472,"C/O: Fornax Ship Management - FZCO Unit 40260-001, Building A1, IFZA Business Park, DDP, Dubai Silicon Oasis, Dubai, United Arab Emirates.",FORNAX SHIP MANAGEMENT,6466241,"Unit 40260-001, Building A1, IFZA Business Park, DDP, Dubai Silicon Oasis, Dubai, United Arab Emirates."
9227443,BSTLS SHIPPING LLC,6507554,"Apartment 14, Building 21, Q Residencial Area, Yeni Gunashli settlement, Surakhani District, Baku, Azerbaijan.",DEAMAR VOYAGE CORP,6507541,"Suite 10, 3rd Floor, La Ciotat, Mont Fleuri, Mahe Island Seychelles.",DEAMAR VOYAGE CORP,6507541,"Suite 10, 3rd Floor, La Ciotat, Mont Fleuri, Mahe Island Seychelles."
9377042,ENEYA LLC,6267148,"Room 18, Building 29, ulitsa Chkalova, derevnya Olya, Olinskiy sel'sovet, Limanskiy, Astrakhan, 416425, Russia.",SBK DOLINA LLC,6218759,"C/O: 'Eneya' LLC Room 18, Building 29, ulitsa Chkalova, derevnya Olya, Olinskiy sel'sovet, Limanskiy, Astrakhan, 416425, Russia.",ENEYA LLC,6267148,"Room 18, Building 29, ulitsa Chkalova, derevnya Olya, Olinskiy sel'sovet, Limanskiy, Astrakhan, 416425, Russia."
9260483,ENEYA LLC,6267148,"Room 18, Building 29, ulitsa Chkalova, derevnya Olya, Olinskiy sel'sovet, Limanskiy, Astrakhan, 416425, Russia.",SBK DOLINA LLC,6218759,"C/O: 'Eneya' LLC Room 18, Building 29, ulitsa Chkalova, derevnya Olya, Olinskiy sel'sovet, Limanskiy, Astrakhan, 416425, Russia.",ENEYA LLC,6267148,"Room 18, Building 29, ulitsa Chkalova, derevnya Olya, Olinskiy sel'sovet, Limanskiy, Astrakhan, 416425, Russia."
9163764,MORSKOY STANDART-BUNKER LLC,5901309,"Room 1, ul Toporkova 9/6, Petropavlovsk-Kamchatskiy, Kamchatskiy kray, 683031, Russia.",UNIVERSAL LEASING CO JSC,5392783,"16th Floor, Building 1, ul Turgeneva 96, Khabarovsk, 680028, Russia.",MORSKOY STANDART-BUNKER LLC,5901309,"Room 1, ul Toporkova 9/6, Petropavlovsk-Kamchatskiy, Kamchatskiy kray, 683031, Russia."
9413561,NOVA SHIPMANAGEMENT LLC-FZ,0055652,"6th Floor, Meydan Grandstand, Al Meydan Road, Nad Al Sheba, Dubai, United Arab Emirates.",CITRINE MARINE SPC,0138716,"C/O: Nova Shipmanagement LLC-FZ 6th Floor, Meydan Grandstand, Al Meydan Road, Nad Al Sheba, Dubai, United Arab Emirates.",NOVA SHIPMANAGEMENT LLC-FZ,0055652,"6th Floor, Meydan Grandstand, Al Meydan Road, Nad Al Sheba, Dubai, United Arab Emirates."
9319882,HUANG LONG SHAN SHIPMANAGEMENT,0064735,"Room 1101, 58, Yaoyuan Lu, Pudong Xinqu, Shanghai, 200000, China.",ANGAT SHIPPING INC,6474771,"C/O: Huang Long Shan Shipmanagement Co Ltd Room 1101, 58, Yaoyuan Lu, Pudong Xinqu, Shanghai, 200000, China.",HUANG LONG SHAN SHIPMANAGEMENT,0064735,"Room 1101, 58, Yaoyuan Lu, Pudong Xinqu, Shanghai, 200000, China."
9248801,LIAO HE SHIPMANAGEMENT CO LTD,0113920,"Room 203, 285, Rongxing Lu, Songjiang Qu, Shanghai, 201613, China.",YURAGI LTD,6508963,"3rd Floor, Standard Chartered Tower, Bank Street, Cybercity, Ebene, Mauritius.",YURAGI LTD,6508963,"3rd Floor, Standard Chartered Tower, Bank Street, Cybercity, Ebene, Mauritius."
9297199,ENEYA LLC,6267148,"Room 18, Building 29, ulitsa Chkalova, derevnya Olya, Olinskiy sel'sovet, Limanskiy, Astrakhan, 416425, Russia.",SBK DOLINA LLC,6218759,"C/O: 'Eneya' LLC Room 18, Building 29, ulitsa Chkalova, derevnya Olya, Olinskiy sel'sovet, Limanskiy, Astrakhan, 416425, Russia.",SBK DOLINA LLC,6218759,"C/O: 'Eneya' LLC Room 18, Building 29, ulitsa Chkalova, derevnya Olya, Olinskiy sel'sovet, Limanskiy, Astrakhan, 416425, Russia."
9282493,VANSHIP MARITIME PVT LTD,0196885,"Office 203, 2nd Floor, NBC Complex, Sector 11, CBD Belapur, Navi Mumbai, Maharashtra, 400614, India.",NARAYAN INTERNATIONAL LTD,6505867,"C/O: Vanship Maritime Pvt Ltd Office 203, 2nd Floor, NBC Complex, Sector 11, CBD Belapur, Navi Mumbai, Maharashtra, 400614, India.",VANSHIP MARITIME PVT LTD,0196885,"Office 203, 2nd Floor, NBC Complex, Sector 11, CBD Belapur, Navi Mumbai, Maharashtra, 400614, India."
9181194,UNKNOWN,9991001,Unknown,OCEANEND SHIPPING LTD,6348942,"PO Box 1137, Victoria, Mahe Island, Seychelles.",OCEANEND SHIPPING LTD,6348942,"PO Box 1137, Victoria, Mahe Island, Seychelles."
9166314,TRINITY SHIPPING LLC-RUS,4239547,"Office 4N, Liter A, House 2, ul 3-ya Liniya 1-y Poloviny St Petersburg, 197341, Russia.",TRINITY SHIPPING LLC-RUS,4239547,"Office 4N, Liter A, House 2, ul 3-ya Liniya 1-y Poloviny St Petersburg, 197341, Russia.",TRINITY SHIPPING LLC-RUS,4239547,"Office 4N, Liter A, House 2, ul 3-ya Liniya 1-y Poloviny St Petersburg, 197341, Russia."
9273387,STRAVAX SHIPPING CO LTD,0168644,"9th Floor, Gelex Tower, 52, Le Dai Hanh, Le Dai Hanh Ward, Hai Ba Trung District, Hanoi City, 100000, Vietnam.",STRAVAX SHIPPING CO LTD,0168644,"9th Floor, Gelex Tower, 52, Le Dai Hanh, Le Dai Hanh Ward, Hai Ba Trung District, Hanoi City, 100000, Vietnam.",STRAVAX SHIPPING CO LTD,0168644,"9th Floor, Gelex Tower, 52, Le Dai Hanh, Le Dai Hanh Ward, Hai Ba Trung District, Hanoi City, 100000, Vietnam."
9274800,UNKNOWN,9991001,Unknown,YAMAI MARITIME INC,0262331,"C/O: Wu Yi Shan Shipmanagement Co Ltd Room 301, Building 2, 112, Yanji Lu, Shibei Qu, Qingdao, Shandong, 266000, China.",YAMAI MARITIME INC,0262331,"C/O: Wu Yi Shan Shipmanagement Co Ltd Room 301, Building 2, 112, Yanji Lu, Shibei Qu, Qingdao, Shandong, 266000, China."
9282986,TRINITY SHIPPING LLC-RUS,4239547,"Office 4N, Liter A, House 2, ul 3-ya Liniya 1-y Poloviny St Petersburg, 197341, Russia.",MUNAI INVEST LLC,6374997,"Ofis 3, prospekt Chuy 147/4, 720011, Bishkek, Kyrgyzstan.",MUNAI INVEST LLC,6374997,"Ofis 3, prospekt Chuy 147/4, 720011, Bishkek, Kyrgyzstan."
9218181,UNKNOWN,9991001,Unknown,ATLANTIS M SHIPPING CO,0237712,"Trust Company Complex, Ajeltake Road, Ajeltake, Majuro MH 96960, Marshall Islands.",ATLANTIS M SHIPPING CO,0237712,"Trust Company Complex, Ajeltake Road, Ajeltake, Majuro MH 96960, Marshall Islands."
9381732,UNKNOWN,9991001,Unknown,RPTD SOLD UNDISCLOSED INTEREST,9991942,Unknown,RPTD SOLD UNDISCLOSED INTEREST,9991942,Unknown
9233765,UNKNOWN,9991001,Unknown,NOBLEFU CO LTD,6352834,"Trust Company Complex, Ajeltake Road, Ajeltake, Majuro MH 96960, Marshall Islands.",NOBLEFU CO LTD,6352834,"Trust Company Complex, Ajeltake Road, Ajeltake, Majuro MH 96960, Marshall Islands."
9624316,PRIME SHIPPING LLC-RUS,4105625,"3rd Floor, ul M Gorkogo 78B, Samara, 443099, Russia.",PB NORGE AS,5516016,"C/O: Prime Shipping LLC 3rd Floor, ul M Gorkogo 78B, Samara, 443099, Russia.",PRIME SHIPPING LLC-RUS,4105625,"3rd Floor, ul M Gorkogo 78B, Samara, 443099, Russia."
9472634,HENG SHAN SHIPMANAGEMENT CO,0114110,"Room 312, 998, Jinyu Lu, Songjiang Qu, Shanghai, 201607, China.",DAVA SHIPPING LTD,0137823,"Aarti Chambers, 102, La Ciotat, Mont Fleuri, Mahe Island Seychelles.",DAVA SHIPPING LTD,0137823,"Aarti Chambers, 102, La Ciotat, Mont Fleuri, Mahe Island Seychelles."
9347308,ASTUTE MARITIME SERVICES PTE,6266269,"03-32, Nordic European Centre, 3, International Business Park, Singapore 609927",UNITED FUEL TRADING UFT PTE,6413394,"03-57, WCEGA Plaza, 1, Bukit Batok Crescent, Singapore 658064",UNITED FUEL TRADING UFT PTE,6413394,"03-57, WCEGA Plaza, 1, Bukit Batok Crescent, Singapore 658064"
9288708,ALQUTB ALSHAMALI MARINE SRVS,6427535,"MF-77, Nooraniyah Building, 152-0, Hor al-Anz, Deira, Dubai, United Arab Emirates.",SEPTALA NAVIGATION LTD,6374334,"C/O: Alqutb Alshamali Marine Services LLC MF-77, Nooraniyah Building, 152-0, Hor al-Anz, Deira, Dubai, United Arab Emirates.",ALQUTB ALSHAMALI MARINE SRVS,6427535,"MF-77, Nooraniyah Building, 152-0, Hor al-Anz, Deira, Dubai, United Arab Emirates."
9164512,SEA ENGINEERING LTD,5103516,"Ofis 2302, Liter A, Korpus 2, Room 15H, prospekt Stachek 48, St Petersburg, 198097, Russia.",LUKOIL-BUNKER,5147094,"Lit A, naberezhnaya Aptekarskaya 8, St Petersburg, 197022, Russia.",LUKOIL-BUNKER,5147094,"Lit A, naberezhnaya Aptekarskaya 8, St Petersburg, 197022, Russia."
9322839,UNKNOWN,9991001,Unknown,KROEGER TANKERS FZE,6492661,"One UAQ, Al Shmookh Business Center, UAQ Free Trade Zone, Umm al Quwain, United Arab Emirates.",KROEGER TANKERS FZE,6492661,"One UAQ, Al Shmookh Business Center, UAQ Free Trade Zone, Umm al Quwain, United Arab Emirates."
9387255,EAST GEMI ISLETMECILIGI AS,0026325,"Ic Kapi 111, A Blok, Hukukcular Towers, Mustafa Kemal Caddesi 66A, Cevizli Mah, Kartal, 34865, Istanbul, Turkey.",AZURE MARITIME SERVICES & TRDG,0253893,"C/O: East Gemi Isletmeciligi AS Ic Kapi 111, A Blok, Hukukcular Towers, Mustafa Kemal Caddesi 66A, Cevizli Mah, Kartal, 34865, Istanbul, Turkey.",EAST GEMI ISLETMECILIGI AS,0026325,"Ic Kapi 111, A Blok, Hukukcular Towers, Mustafa Kemal Caddesi 66A, Cevizli Mah, Kartal, 34865, Istanbul, Turkey."
9388780,LONG ZHU HU SHIPMANAGEMENT CO,0137491,"Room 803, 1308, Lianhua Lu, Minhang Qu, Shanghai, China.",BUBBLE MARINE INC,6431912,"Suite 212, Second Floor, Block A, Unity House, Palm Street, Victoria, Mahe Island, Seychelles.",BUBBLE MARINE INC,6431912,"Suite 212, Second Floor, Block A, Unity House, Palm Street, Victoria, Mahe Island, Seychelles."
9327396,COUGAR NAUTIC INC,6355581,"Oficina 16L, piso 16, Panama Design Center PDC, Calle 56 Este, Panama City, Panama.",SKY-2 LTD,6455569,"80, Broad Street, Monrovia, Liberia.",SKY-2 LTD,6455569,"80, Broad Street, Monrovia, Liberia."
9460564,DONG HAI SHIPMANAGEMENT CO LTD,0231041,"Room 1007, 333, Hongqiao Lu, Minhang Qu, Shanghai, 200000, China.",TOILA SHIPPING LTD,0138645,"3rd Floor, Bank Street, Cybercity, Ebene, Mauritius.",TOILA SHIPPING LTD,0138645,"3rd Floor, Bank Street, Cybercity, Ebene, Mauritius."
9384447,NORTH VECTOR' LLC,0279833,"Office 3-N, Letter A, ul Telezhnaya 3, St Petersburg, 191024, Russia.",BENGO AQUATIC INC,6492922,"C/O: Ping Ding Shan Shipmanagement Co Ltd Room 506, 99, Tianmu Xilu, Jing'an Qu, Shanghai, 200000, China.",BENGO AQUATIC INC,6492922,"C/O: Ping Ding Shan Shipmanagement Co Ltd Room 506, 99, Tianmu Xilu, Jing'an Qu, Shanghai, 200000, China."
9621560,CONARO SHIPPING JSC,0074609,"pom 1, prospekt Budonnovskiy 2A/23B, Rostov-na-Donu, 344002, Russia.",NAFTA-INVEST LLC,6149907,"Ofis 408, ul Karla Marksa 71, Kazan, Tatarstan, 420015, Russia.",PETROTANKER LTD,5761957,"Office 523, ul Verbnaya 27A, St Petersburg, 197375, Russia."
9290921,TIDAL TECH MARINERS LLC,0013355,"Apartment 47, Heydar Aliyev Avenue 32, AZ 5000, Sumqayit Azerbaijan.",OCEAN VOYAGE CORP,6386819,"Suite 10, 3rd Floor, La Ciotat, Mont Fleuri, Mahe Island Seychelles.",OCEAN VOYAGE CORP,6386819,"Suite 10, 3rd Floor, La Ciotat, Mont Fleuri, Mahe Island Seychelles."
9270749,NORTHSTAR MARITIME PVT LTD,6495961,"Office 603, 6th Floor, Hermes Atrium, Plot 57, Sector 11, CBD Belapur, Thane, Maharashtra, 400614, India.",IRA SHIPPING INC,0378004,"Suite 5, Acclime Chambers, PO Box 544, Saleufi Street, Apia, Upolu Island, Samoa.",IRA SHIPPING INC,0378004,"Suite 5, Acclime Chambers, PO Box 544, Saleufi Street, Apia, Upolu Island, Samoa."
9412359,INVEST FLEET LTD,6460140,"Kab 18, Pom 7-H, Liter A, ul Vasi Alekseyeva 14, St Petersburg, 198188, Russia.",NS BRAVO SHIPPING INC,5512129,"C/O: Stream Ship Management FZCO DDP 27700-001, Dubai Silicon Oasis, PO Box 342001, Dubai, United Arab Emirates.",INVEST FLEET LTD,6460140,"Kab 18, Pom 7-H, Liter A, ul Vasi Alekseyeva 14, St Petersburg, 198188, Russia."
9299446,BABYLON NAVIGATION DMCC,6204848,"Unit 2502, Preatoni Tower, Cluster L2, Jumeirah Lakes Towers, Dubai, United Arab Emirates.",ARTFUL CHARTERS SA,6512784,"C/O: Babylon Navigation DMCC Unit 2502, Preatoni Tower, Cluster L2, Jumeirah Lakes Towers, Dubai, United Arab Emirates.",BABYLON NAVIGATION DMCC,6204848,"Unit 2502, Preatoni Tower, Cluster L2, Jumeirah Lakes Towers, Dubai, United Arab Emirates."
9332614,FLEET TANQO PVT LTD,0261023,"Office 2001, 20th Floor, G-Square Business Park, Plot 25/26, Sector 30, Vashi, Navi Mumbai, Maharashtra, 400703, India.",NARDIE INTERNATIONAL SA,6505871,"Trust Company Complex, Ajeltake Road, Ajeltake, Majuro MH 96960, Marshall Islands.",NARDIE INTERNATIONAL SA,6505871,"Trust Company Complex, Ajeltake Road, Ajeltake, Majuro MH 96960, Marshall Islands."
9384435,NORTH VECTOR' LLC,0279833,"Office 3-N, Letter A, ul Telezhnaya 3, St Petersburg, 191024, Russia.",KASAI AQUATIC INC,6492940,"1st Floor, Dekk House, Zippora Street, Providence Industrial Estate, Victoria, Mahe Island, Seychelles.",KASAI AQUATIC INC,6492940,"1st Floor, Dekk House, Zippora Street, Providence Industrial Estate, Victoria, Mahe Island, Seychelles."
9289491,MAX MARITIME SOLUTIONS FZE,6340553,"Office G22, Building 1, Hamriyah Free Zone, Sharjah, United Arab Emirates.",VILLETA SERVICES INC,6487547,"C/O: Max Maritime Solutions FZE Office G22, Building 1, Hamriyah Free Zone, Sharjah, United Arab Emirates.",MAX MARITIME SOLUTIONS FZE,6340553,"Office G22, Building 1, Hamriyah Free Zone, Sharjah, United Arab Emirates."
9293155,UNKNOWN,9991001,Unknown,JUNIA SHIPPING INC,0219305,"C/O: Elevate Marine Management Pvt Ltd Office 204, 2nd Floor, Thapar Complex, Plot 51, Sector 15, CBD Belapur, Navi Mumbai, Maharashtra, 400614, India.",ELEVATE MARINE MANAGEMENT PVT,0121567,"Office 204, 2nd Floor, Thapar Complex, Plot 51, Sector 15, CBD Belapur, Navi Mumbai, Maharashtra, 400614, India."
9220914,IRIS STAR SHIP MANAGEMENT,0301563,"Office 2101, Fairmont Dubai Office Tower, World Trade Centre, Sheikh Zayed Road, Dubai, United Arab Emirates.",EVY BLUE LTD,0326041,"C/O: Iris Star Ship Management & Operation LLC Office 2101, Fairmont Dubai Office Tower, World Trade Centre, Sheikh Zayed Road, Dubai, United Arab Emirates.",IRIS STAR SHIP MANAGEMENT,0301563,"Office 2101, Fairmont Dubai Office Tower, World Trade Centre, Sheikh Zayed Road, Dubai, United Arab Emirates."
9262168,EVEROON SHIP SERVICES OPC PVT,6227611,"Shop 106, 1st Floor, Topiwala Center, Pahadi Village, SV Road, Goregaon (W), Mumbai, 400104, India.",STRONG ROOTS PROVIDER NV,6215065,"Keizer Straat 40A, Paramaribo, Suriname.",STRONG ROOTS PROVIDER NV,6215065,"Keizer Straat 40A, Paramaribo, Suriname."
9220926,BERNICE SHIPPING LTD,6409729,"Room E2243, 6, Loushan Zhilu, Licang Qu, Qingdao, Shandong, 266000, China.",BERNICE SHIPPING LTD,6409729,"Room E2243, 6, Loushan Zhilu, Licang Qu, Qingdao, Shandong, 266000, China.",BERNICE SHIPPING LTD,6409729,"Room E2243, 6, Loushan Zhilu, Licang Qu, Qingdao, Shandong, 266000, China."
9308821,STELLAR SHIP SOLUTIONS LLC,0055533,"Apartment 18, Building 6, Estate 76, AZ 5006, Sumqayit Azerbaijan.",OPULENT HAVEN CORP,6487153,"Suite 10, 3rd Floor, La Ciotat, Mont Fleuri, Mahe Island Seychelles.",OPULENT HAVEN CORP,6487153,"Suite 10, 3rd Floor, La Ciotat, Mont Fleuri, Mahe Island Seychelles."
9292163,SHANGHAI LEGENDARY SHIP MGMT,6113237,"575, Changjiang Lu, Xigang Qu, Dalian, Liaoning, 116014, China.",CENTAURUS MIN LTD,6476560,"C/O: Shanghai Legendary Ship Management Co Ltd 575, Changjiang Lu, Xigang Qu, Dalian, Liaoning, 116014, China.",SHANGHAI LEGENDARY SHIP MGMT,6113237,"575, Changjiang Lu, Xigang Qu, Dalian, Liaoning, 116014, China."
9323338,UNKNOWN,9991001,Unknown,KIPPER MARINE SOLUTIONS FZ-LLC,6497764,"BIZ01270, Compass Building, Al Shohada Road, Al Hamra Industrial Zone, Ras al Khaimah, United Arab Emirates.",KIPPER MARINE SOLUTIONS FZ-LLC,6497764,"BIZ01270, Compass Building, Al Shohada Road, Al Hamra Industrial Zone, Ras al Khaimah, United Arab Emirates."
9439383,DA BIE SHAN SHIPMANAGEMENT CO,0137117,"Room 606, 498, Guoshoujing Lu, Pudong Xinqu, Shanghai, 200000, China.",TIKA SHIPPING LTD,0115311,"Suite 1, Commercial House One, Eden Island Seychelles.",TIKA SHIPPING LTD,0115311,"Suite 1, Commercial House One, Eden Island Seychelles."
9259927,BABYLON NAVIGATION DMCC,6204848,"Unit 2502, Preatoni Tower, Cluster L2, Jumeirah Lakes Towers, Dubai, United Arab Emirates.",KEELY SHIPTRADE LTD,6458957,"C/O: Babylon Navigation DMCC Unit 2502, Preatoni Tower, Cluster L2, Jumeirah Lakes Towers, Dubai, United Arab Emirates.",BABYLON NAVIGATION DMCC,6204848,"Unit 2502, Preatoni Tower, Cluster L2, Jumeirah Lakes Towers, Dubai, United Arab Emirates."
9263215,UNKNOWN,9991001,Unknown,PROPITIOUS FOREVER TRADING,6471215,"7, Copperfield Road, Coventry, West Midlands, CV2 4AQ, United Kingdom.",PROPITIOUS FOREVER TRADING,6471215,"7, Copperfield Road, Coventry, West Midlands, CV2 4AQ, United Kingdom."
9285756,UNKNOWN,9991001,Unknown,WISDOM SHIPPING TRADING SA,0143742,"C/O: Lightship Management Ltd ul Chornomorskoho Kozatstva 115, Odessa, 65003, Ukraine.",LIGHTSHIP MANAGEMENT LTD,6141155,"ul Chornomorskoho Kozatstva 115, Odessa, 65003, Ukraine."
9266865,FLEETCRAFT MANAGEMENT LLC,0025548,"Apartment 17, Building 5, Estate 76, Sulh Street AZ 5006, Sumqayit Azerbaijan.",DORIS VOYAGE LTD,0030322,"Suite 10, 3rd Floor, La Ciotat, Mont Fleuri, Mahe Island Seychelles.",DORIS VOYAGE LTD,0030322,"Suite 10, 3rd Floor, La Ciotat, Mont Fleuri, Mahe Island Seychelles."
9275763,EMT GEMI ISLETMECILIGI AS,0115002,"Yesilkoy Halkali Caddesi 93/2, Senlikkoy Mah, Bakirkoy, 34153, Istanbul, Turkey.",BRIGHT MARITIME SERVICES,0245567,"C/O: EMT Gemi Isletmeciligi AS Yesilkoy Halkali Caddesi 93/2, Senlikkoy Mah, Bakirkoy, 34153, Istanbul, Turkey.",EMT GEMI ISLETMECILIGI AS,0115002,"Yesilkoy Halkali Caddesi 93/2, Senlikkoy Mah, Bakirkoy, 34153, Istanbul, Turkey."
9236353,UNKNOWN,9991001,Unknown,CRESTWAVE MARITIME LTD,6470941,"Nazan Sokak 2-6, Evliya Celebi Mah, Tuzla, Istanbul, Turkey.",CRESTWAVE MARITIME LTD,6470941,"Nazan Sokak 2-6, Evliya Celebi Mah, Tuzla, Istanbul, Turkey."
9273442,UNKNOWN,9991001,Unknown,BLUE MARITIME SERVICES & TRDG,0245522,"C/O: EMT Gemi Isletmeciligi AS Yesilkoy Halkali Caddesi 93/2, Senlikkoy Mah, Bakirkoy, 34153, Istanbul, Turkey.",EMT GEMI ISLETMECILIGI AS,0115002,"Yesilkoy Halkali Caddesi 93/2, Senlikkoy Mah, Bakirkoy, 34153, Istanbul, Turkey."
9334557,VINDHYA SHIPPING PVT LTD,0092225,"4th Floor, Building 2, Spectrum Tower, Link Road, Malad (W), Mumbai, 400064, India.",SAIHAT MARITIME INC,6466135,"C/O: Vindhya Shipping Pvt Ltd 4th Floor, Building 2, Spectrum Tower, Link Road, Malad (W), Mumbai, 400064, India.",VINDHYA SHIPPING PVT LTD,0092225,"4th Floor, Building 2, Spectrum Tower, Link Road, Malad (W), Mumbai, 400064, India."
9640530,BM FLOT LLC,6352556,"Room 6, ulitsa Botvina 49, Astrakhan, 414052, Russia.",ALLIANCE LLC,6390060,"Ofis 5, Liter G, M Maksakovoy ulitsa 14, Astrakhan, 414056, Russia.",ALLIANCE LLC,6390060,"Ofis 5, Liter G, M Maksakovoy ulitsa 14, Astrakhan, 414056, Russia."
9422457,NOVA SHIPMANAGEMENT LLC-FZ,0055652,"6th Floor, Meydan Grandstand, Al Meydan Road, Nad Al Sheba, Dubai, United Arab Emirates.",CITRINE MARINE SPC,0138716,"C/O: Nova Shipmanagement LLC-FZ 6th Floor, Meydan Grandstand, Al Meydan Road, Nad Al Sheba, Dubai, United Arab Emirates.",NOVA SHIPMANAGEMENT LLC-FZ,0055652,"6th Floor, Meydan Grandstand, Al Meydan Road, Nad Al Sheba, Dubai, United Arab Emirates."
9144782,VIRTUE NAVIS SHIPMANAGEMENT,6510814,"Apt 2, Zhandosov kacesi 30, Almaty, 050057, Kazakhstan.",ERST GROUP LTD,6510831,"Suite 10, 3rd Floor, La Ciotat, Mont Fleuri, Mahe Island Seychelles.",ERST GROUP LTD,6510831,"Suite 10, 3rd Floor, La Ciotat, Mont Fleuri, Mahe Island Seychelles."
9251456,MAXCON MARINE SERVICES INC,6486243,"Office 1962, Thamani Arts Building, Business Bay, Dubai, United Arab Emirates.",TRIDENT SERENITY LTD,6141946,"C/O: Maxcon Marine Services Inc Office 1962, Thamani Arts Building, Business Bay, Dubai, United Arab Emirates.",MAXCON MARINE SERVICES INC,6486243,"Office 1962, Thamani Arts Building, Business Bay, Dubai, United Arab Emirates."
9439539,UNKNOWN,9991001,Unknown,BOLU GROUP LTD,0059381,"80, Broad Street, Monrovia, Liberia.",BOLU GROUP LTD,0059381,"80, Broad Street, Monrovia, Liberia."
9412335,DREAMER SHIPMANAGEMENT LLC-FZ,0032244,"6th Floor, Meydan Grandstand, Al Meydan Road, Nad Al Sheba, Dubai, United Arab Emirates.",SERPENTINE MARINE SPC,0138693,"C/O: Dreamer Shipmanagement LLC-FZ 6th Floor, Meydan Grandstand, Al Meydan Road, Nad Al Sheba, Dubai, United Arab Emirates.",DREAMER SHIPMANAGEMENT LLC-FZ,0032244,"6th Floor, Meydan Grandstand, Al Meydan Road, Nad Al Sheba, Dubai, United Arab Emirates."
9284726,NEBULON STEELVIEL LLC,0241462,"AZ 5000, Sumqayit Azerbaijan.",BLOSSOM BRIDGE CORP,6437580,"Suite 10, 3rd Floor, La Ciotat, Mont Fleuri, Mahe Island Seychelles.",BLOSSOM BRIDGE CORP,6437580,"Suite 10, 3rd Floor, La Ciotat, Mont Fleuri, Mahe Island Seychelles."
9257022,TONG LUO SHAN SHIPMANAGEMENT,0137134,"Room 603, 2313, Pingliang Lu, Yangpu Qu, Shanghai, 200000, China.",SARSWATI SHIPPING LTD,0123254,"Victoria, Mahe Island, Seychelles.",SARSWATI SHIPPING LTD,0123254,"Victoria, Mahe Island, Seychelles."
9411020,INVEST FLEET LTD,6460140,"Kab 18, Pom 7-H, Liter A, ul Vasi Alekseyeva 14, St Petersburg, 198188, Russia.",NS BURGAS SHIPPING INC,5484479,"C/O: Stream Ship Management FZCO DDP 27700-001, Dubai Silicon Oasis, PO Box 342001, Dubai, United Arab Emirates.",INVEST FLEET LTD,6460140,"Kab 18, Pom 7-H, Liter A, ul Vasi Alekseyeva 14, St Petersburg, 198188, Russia."
9288722,NAUTILUS FLEET MANAGEMENT LLC,0055927,"Apartment 31, Building 2, Estate 41, AZ 5006, Sumqayit Azerbaijan.",AYMERA FORWARD LTD,0275141,"C/O: 'Nautilus Fleet Management' LLC Apartment 31, Building 2, Estate 41, AZ 5006, Sumqayit Azerbaijan.",NAUTILUS FLEET MANAGEMENT LLC,0055927,"Apartment 31, Building 2, Estate 41, AZ 5006, Sumqayit Azerbaijan."
9247778,SALVUS SHIPPING MANAGEMENT FZE,0194668,"BC 1314482, Ajman Free Zone, Ajman, United Arab Emirates.",MEUSE SHIPPING INC,6168478,"Trust Company Complex, Ajeltake Road, Ajeltake, Majuro MH 96960, Marshall Islands.",MEUSE SHIPPING INC,6168478,"Trust Company Complex, Ajeltake Road, Ajeltake, Majuro MH 96960, Marshall Islands."
9305568,LARK SHIPMANAGEMENT LLC-FZ,0161341,"6th Floor, Meydan Grandstand, Al Meydan Road, Nad Al Sheba, Dubai, United Arab Emirates.",VENUS MARITIME CORP-SEY,0077872,"C/O: Lark Shipmanagement LLC-FZ 6th Floor, Meydan Grandstand, Al Meydan Road, Nad Al Sheba, Dubai, United Arab Emirates.",LARK SHIPMANAGEMENT LLC-FZ,0161341,"6th Floor, Meydan Grandstand, Al Meydan Road, Nad Al Sheba, Dubai, United Arab Emirates."
9289532,SILVERFIN MARINE LLP,0090524,"Raikar Chambers, opp to Firex Co, Govandi (E), Mumbai, 400088, India.",SYNCMAR LOGISTICS LTD,0166461,"C/O: Silverfin Marine LLP Raikar Chambers, opp to Firex Co, Govandi (E), Mumbai, 400088, India.",SILVERFIN MARINE LLP,0090524,"Raikar Chambers, opp to Firex Co, Govandi (E), Mumbai, 400088, India."
9252955,UNKNOWN,9991001,Unknown,MOLKA LTD,6505765,"C/O: The Zulu Ships Management & Operation - Sole Proprietorship LLC Office 105, Madinat Zayed Tower, Muroor Road, Abu Dhabi, United Arab Emirates.",ZULU SHIPS MANAGEMENT,6509771,"Office 105, Madinat Zayed Tower, Muroor Road, Abu Dhabi, United Arab Emirates."
8808525,ASTIC SHIPPING LTD,6369118,"Aysu Is Merkezi, 37, 34746, Istanbul, Turkey.",THANDOR SHIPPING LTD,0256252,"C/O: Astic Shipping Ltd Aysu Is Merkezi, 37, 34746, Istanbul, Turkey.",ASTIC SHIPPING LTD,6369118,"Aysu Is Merkezi, 37, 34746, Istanbul, Turkey."
9261657,TIDAL TECH MARINERS LLC,0013355,"Apartment 47, Heydar Aliyev Avenue 32, AZ 5000, Sumqayit Azerbaijan.",MARINEQUEST CORP,6422711,"Suite 10, 3rd Floor, La Ciotat, Mont Fleuri, Mahe Island Seychelles.",MARINEQUEST CORP,6422711,"Suite 10, 3rd Floor, La Ciotat, Mont Fleuri, Mahe Island Seychelles."
9437983,HUA GUO SHAN SHIPMANAGEMENT CO,0114313,"Room 208, 1528, Hutai Lu, Baoshan Qu, Shanghai, 200000, China.",ACCERONIX LTD,6502125,"1st Floor, Dekk House, Zippora Street, Providence Industrial Estate, Victoria, Mahe Island, Seychelles.",ACCERONIX LTD,6502125,"1st Floor, Dekk House, Zippora Street, Providence Industrial Estate, Victoria, Mahe Island, Seychelles."
9254850,BABYLON NAVIGATION DMCC,6204848,"Unit 2502, Preatoni Tower, Cluster L2, Jumeirah Lakes Towers, Dubai, United Arab Emirates.",ODIAR MANAGEMENT SA,6208372,"C/O: Babylon Navigation DMCC Unit 2502, Preatoni Tower, Cluster L2, Jumeirah Lakes Towers, Dubai, United Arab Emirates.",BABYLON NAVIGATION DMCC,6204848,"Unit 2502, Preatoni Tower, Cluster L2, Jumeirah Lakes Towers, Dubai, United Arab Emirates."
9411331,GLORY SHIPPING HK LTD,0082952,"Unit 613, 6th Floor, LT Tower, 31, Chong Yip Street, Kwun Tong, Kowloon, Hong Kong, China.",EAST ASIAN HONG KONG LTD,6384888,"C/O: Glory Shipping HK Ltd Unit 613, 6th Floor, LT Tower, 31, Chong Yip Street, Kwun Tong, Kowloon, Hong Kong, China.",GLORY SHIPPING HK LTD,0082952,"Unit 613, 6th Floor, LT Tower, 31, Chong Yip Street, Kwun Tong, Kowloon, Hong Kong, China."
9299680,NAVY LINE SHIP MANAGEMENT PVT,6428003,"Rooms 211/212, Prestige Chambers, Near Indian Seamen's Hostel, Kalyan Street, Dana Bunder, Masjid Bunder (East), Mumbai, India.",OZEEVO SHIPPING IFSC PVT LTD,0108425,"C/O: Navy Line Ship Management Pvt Ltd Rooms 211/212, Prestige Chambers, Near Indian Seamen's Hostel, Kalyan Street, Dana Bunder, Masjid Bunder (East), Mumbai, India.",NAVY LINE SHIP MANAGEMENT PVT,6428003,"Rooms 211/212, Prestige Chambers, Near Indian Seamen's Hostel, Kalyan Street, Dana Bunder, Masjid Bunder (East), Mumbai, India."
9341079,DREAMER SHIPMANAGEMENT LLC-FZ,0032244,"6th Floor, Meydan Grandstand, Al Meydan Road, Nad Al Sheba, Dubai, United Arab Emirates.",SERPENTINE MARINE SPC,0138693,"C/O: Dreamer Shipmanagement LLC-FZ 6th Floor, Meydan Grandstand, Al Meydan Road, Nad Al Sheba, Dubai, United Arab Emirates.",DREAMER SHIPMANAGEMENT LLC-FZ,0032244,"6th Floor, Meydan Grandstand, Al Meydan Road, Nad Al Sheba, Dubai, United Arab Emirates."
9258882,OCEANPACK SHIP MANAGEMENT PVT,0047958,"Office A154, Plot 42A, Balaji Bhavan, Sector 11, CBD Belapur, Navi Mumbai, Maharashtra, 400614, India.",SLT PRO FZCO,0174532,"C/O: Oceanpack Ship Management Pvt Ltd Office A154, Plot 42A, Balaji Bhavan, Sector 11, CBD Belapur, Navi Mumbai, Maharashtra, 400614, India.",OCEANPACK SHIP MANAGEMENT PVT,0047958,"Office A154, Plot 42A, Balaji Bhavan, Sector 11, CBD Belapur, Navi Mumbai, Maharashtra, 400614, India."
9240512,DERECTTOR CO LTD,6207391,"31-06, Fuli Center, 6, Gangxing Lu, Zhongshan Qu, Dalian, Liaoning, 116001, China.",LINDOR VELLA CO LTD,6382864,"C/O: Derecttor Co Ltd 31-06, Fuli Center, 6, Gangxing Lu, Zhongshan Qu, Dalian, Liaoning, 116001, China.",DERECTTOR CO LTD,6207391,"31-06, Fuli Center, 6, Gangxing Lu, Zhongshan Qu, Dalian, Liaoning, 116001, China."
9341081,DREAMER SHIPMANAGEMENT LLC-FZ,0032244,"6th Floor, Meydan Grandstand, Al Meydan Road, Nad Al Sheba, Dubai, United Arab Emirates.",SERPENTINE MARINE SPC,0138693,"C/O: Dreamer Shipmanagement LLC-FZ 6th Floor, Meydan Grandstand, Al Meydan Road, Nad Al Sheba, Dubai, United Arab Emirates.",DREAMER SHIPMANAGEMENT LLC-FZ,0032244,"6th Floor, Meydan Grandstand, Al Meydan Road, Nad Al Sheba, Dubai, United Arab Emirates."
9224439,VILLAR SHIPMANAGEMENT LTD,6239468,"Room 702, 555, Xujiahui Lu, Huangpu Qu, Shanghai, China.",RENTOOR SHIPMANAGEMENT LTD,0374908,"Trust Company Complex, Ajeltake Road, Ajeltake, Majuro MH 96960, Marshall Islands.",VILLAR SHIPMANAGEMENT LTD,6239468,"Room 702, 555, Xujiahui Lu, Huangpu Qu, Shanghai, China."
9137648,MARS MARINE SOLUTIONS FZE,0013094,"Office 16, Building Z3, SAIF Zone, Sharjah, United Arab Emirates.",FIRST LIGHT MARINE CORP,6402580,"Suite 10, 3rd Floor, La Ciotat, Mont Fleuri, Mahe Island Seychelles.",FIRST LIGHT MARINE CORP,6402580,"Suite 10, 3rd Floor, La Ciotat, Mont Fleuri, Mahe Island Seychelles."
9282508,FLEET TANQO PVT LTD,0261023,"Office 2001, 20th Floor, G-Square Business Park, Plot 25/26, Sector 30, Vashi, Navi Mumbai, Maharashtra, 400703, India.",HAPUKA MARINE LTD,6467751,"C/O: WesTanker Ltd Office 303, Kat 2, Nurol Tower, Yeni Yol Caddesi, Izzetpasa Mah, 3, Sisli, 34387, Istanbul, Turkey.",HAPUKA MARINE LTD,6467751,"C/O: WesTanker Ltd Office 303, Kat 2, Nurol Tower, Yeni Yol Caddesi, Izzetpasa Mah, 3, Sisli, 34387, Istanbul, Turkey."
9306794,NOVA SHIPMANAGEMENT LLC-FZ,0055652,"6th Floor, Meydan Grandstand, Al Meydan Road, Nad Al Sheba, Dubai, United Arab Emirates.",CITRINE MARINE SPC,0138716,"C/O: Nova Shipmanagement LLC-FZ 6th Floor, Meydan Grandstand, Al Meydan Road, Nad Al Sheba, Dubai, United Arab Emirates.",NOVA SHIPMANAGEMENT LLC-FZ,0055652,"6th Floor, Meydan Grandstand, Al Meydan Road, Nad Al Sheba, Dubai, United Arab Emirates."
9247792,TWINKLE DOREEN CO LTD,0127844,"18, Mintai Dadao, Yizheng, Jiangsu, 225000, China.",TWINKLE DOREEN CO LTD,0127844,"18, Mintai Dadao, Yizheng, Jiangsu, 225000, China.",TWINKLE DOREEN CO LTD,0127844,"18, Mintai Dadao, Yizheng, Jiangsu, 225000, China."
9299692,DREAMER SHIPMANAGEMENT LLC-FZ,0032244,"6th Floor, Meydan Grandstand, Al Meydan Road, Nad Al Sheba, Dubai, United Arab Emirates.",SERPENTINE MARINE SPC,0138693,"C/O: Dreamer Shipmanagement LLC-FZ 6th Floor, Meydan Grandstand, Al Meydan Road, Nad Al Sheba, Dubai, United Arab Emirates.",DREAMER SHIPMANAGEMENT LLC-FZ,0032244,"6th Floor, Meydan Grandstand, Al Meydan Road, Nad Al Sheba, Dubai, United Arab Emirates."
9380673,UNKNOWN,9991001,Unknown,CASCADE COLLECTIVE CORP,0239081,"Suite 309, Capital City Building, Independence Avenue, Victoria, Mahe Island, Seychelles.",CASCADE COLLECTIVE CORP,0239081,"Suite 309, Capital City Building, Independence Avenue, Victoria, Mahe Island, Seychelles."
9436020,GACRUX MARITIME PVT LTD,0126112,"New 56/3, Old 44/3, Block D, Thirumalai Pillai Road, Thyagaraya Nagar, Chennai, 600017, India.",ANAND SHIPPING LTD-SEY,0137810,"C/O: Gacrux Maritime Pvt Ltd New 56/3, Old 44/3, Block D, Thirumalai Pillai Road, Thyagaraya Nagar, Chennai, 600017, India.",GACRUX MARITIME PVT LTD,0126112,"New 56/3, Old 44/3, Block D, Thirumalai Pillai Road, Thyagaraya Nagar, Chennai, 600017, India."
9229439,BLUESHARK SHIPPING PTE LTD,6204587,"04-35, West Connect, 10, Buroh Street, Singapore 627564",CERES SHIPPING LTD-HKG,6126330,"Room 2703, Richmond Commercial Building, 109, Argyle Street, Kowloon, Hong Kong, China.",CERES SHIPPING LTD-HKG,6126330,"Room 2703, Richmond Commercial Building, 109, Argyle Street, Kowloon, Hong Kong, China."
9418482,LUMEN SHIP MANAGEMENT - FZCO,0019646,"Unit 405, 4th Floor, Jumeirah Business Center 5, Jumeirah Lakes Towers, Dubai, United Arab Emirates.",CENTAURI SERVICES LLC,0110029,"C/O: Lumen Ship Management - FZCO Unit 405, 4th Floor, Jumeirah Business Center 5, Jumeirah Lakes Towers, Dubai, United Arab Emirates.",CENTAURI SERVICES LLC,0110029,"C/O: Lumen Ship Management - FZCO Unit 405, 4th Floor, Jumeirah Business Center 5, Jumeirah Lakes Towers, Dubai, United Arab Emirates."
9276585,AURORA NOVA SHIPPING LTD,6495445,"Building C, 888, Huanhu Xierlu, Lingang Xinqu, Shanghai Pilot Free Trade Zone, Shanghai, 200136, China.",YOUNG FOLKS INTL TRADING,6495842,"Rooms 1318-19, Hollywood Plaza, 610, Nathan Road, Mong Kok, Kowloon, Hong Kong, China.",YOUNG FOLKS INTL TRADING,6495842,"Rooms 1318-19, Hollywood Plaza, 610, Nathan Road, Mong Kok, Kowloon, Hong Kong, China."
9318022,ALACRITAS SHIPPING FZE,0044101,"Office E-41F-44, P1-ELOB, Hamriyah Free Zone, Sharjah, United Arab Emirates.",CHARMINAR LINES INC,6371808,"C/O: Algae Ship Charter - FZCO Building A1, Dubai Digital Park, Dubai Silicon Oasis, Dubai, United Arab Emirates.",ALGAE SHIP CHARTER FZCO,6508402,"Building A1, Dubai Digital Park, Dubai Silicon Oasis, Dubai, United Arab Emirates."
9222560,MAXCON MARINE SERVICES INC,6486243,"Office 1962, Thamani Arts Building, Business Bay, Dubai, United Arab Emirates.",TRIDENT MODESTY LTD,6141831,"C/O: Maxcon Marine Services Inc Office 1962, Thamani Arts Building, Business Bay, Dubai, United Arab Emirates.",MAXCON MARINE SERVICES INC,6486243,"Office 1962, Thamani Arts Building, Business Bay, Dubai, United Arab Emirates."
9304629,SHUNYUAN SHIPMANAGEMENT CO LTD,6199391,"Room 603, Unit 4, Building 6, 8, Dagang Sanlu, Shibei Qu, Qingdao, Shandong, 266000, China.",HENGRONG SHIPPING LTD,6476383,"Trust Company Complex, Ajeltake Road, Ajeltake, Majuro MH 96960, Marshall Islands.",HENGRONG SHIPPING LTD,6476383,"Trust Company Complex, Ajeltake Road, Ajeltake, Majuro MH 96960, Marshall Islands."
9171498,GLORY INTERNATIONAL FZ-LLC,6116541,"RAKIA Amenity Center, al-Jazirat al-Hamra, PO Box 121813, Ras al Khaimah, United Arab Emirates.",CHIL 1 SHIPPING LINES INC,0050400,"C/O: Glory International FZ-LLC RAKIA Amenity Center, al-Jazirat al-Hamra, PO Box 121813, Ras al Khaimah, United Arab Emirates.",GLORY INTERNATIONAL FZ-LLC,6116541,"RAKIA Amenity Center, al-Jazirat al-Hamra, PO Box 121813, Ras al Khaimah, United Arab Emirates."
9294123,CHARAI SEA SHIPPING PVT LTD,0112793,"81F, Express Zone Mall, Western Express Highway, Malad (E), Mumbai, 400097, India.",JIZAN MARITIME INC,6466121,"Suite 212, 2nd Floor, Block A, Unity House, Palm Street, Victoria, Mahe Island, Seychelles.",JIZAN MARITIME INC,6466121,"Suite 212, 2nd Floor, Block A, Unity House, Palm Street, Victoria, Mahe Island, Seychelles."
9171175,RP-SHIPPING LLC,6295389,"Office 809, ul Lenina 82, Murmansk, 183038, Russia.",RP-SHIPPING LLC,6295389,"Office 809, ul Lenina 82, Murmansk, 183038, Russia.",RP-SHIPPING LLC,6295389,"Office 809, ul Lenina 82, Murmansk, 183038, Russia."
9270517,TRANSNAVIO SHIPPING FZ-LLC,0050427,"AB-11A4, Administration Building - Nakheel, Ras Al Khaimah Economic Zone Business Zone-FZ, Ras al Khaimah, United Arab Emirates.",ANAHITA SHIPPING LTD,6503446,"Intershore Chambers, Road Town, Tortola, British Virgin Islands.",ANAHITA SHIPPING LTD,6503446,"Intershore Chambers, Road Town, Tortola, British Virgin Islands."
9235000,UNKNOWN,9991001,Unknown,TRIDENT HARMONY LTD,6141963,"Victoria, Mahe Island, Seychelles.",TRIDENT HARMONY LTD,6141963,"Victoria, Mahe Island, Seychelles."
9288693,UNKNOWN,9991001,Unknown,TACHIO TRADING LTD,0251336,"C/O: Aurelius Ship Management LLC Office 195, IDS Building, Plot 523, al-Karama, Dubai, United Arab Emirates.",AURELIUS SHIP MANAGEMENT LLC,0135981,"Office 195, IDS Building, Plot 523, al-Karama, Dubai, United Arab Emirates."
9291250,UNKNOWN,9991001,Unknown,TOWER MARITIME & TRADING INC,0142055,"31st Floor, Bisca Financial Center, Avenida Balboa, Panama City, Panama.",TOWER MARITIME & TRADING INC,0142055,"31st Floor, Bisca Financial Center, Avenida Balboa, Panama City, Panama."
9544281,GLORY SHIPPING HK LTD,0082952,"Unit 613, 6th Floor, LT Tower, 31, Chong Yip Street, Kwun Tong, Kowloon, Hong Kong, China.",EAST VANTAGE HONG KONG LTD,6395114,"C/O: Glory Shipping HK Ltd Unit 613, 6th Floor, LT Tower, 31, Chong Yip Street, Kwun Tong, Kowloon, Hong Kong, China.",GLORY SHIPPING HK LTD,0082952,"Unit 613, 6th Floor, LT Tower, 31, Chong Yip Street, Kwun Tong, Kowloon, Hong Kong, China."
9553957,ETERNAL SHIP MANAGEMENT,6472403,"Unit A-404, Plot 4, Sector 132, Noida, Dist Gautam Budh Nagar, Uttar Pradesh, 201301, India.",AAA MARITIME SHIPPING SA,6100681,"C/O: Etihad Engineering & Marine Services FZC Hamriyah Free Zone, PO Box 42235, Sharjah, United Arab Emirates.",ETIHAD ENGINEERING & MARINE,5700690,"Hamriyah Free Zone, PO Box 42235, Sharjah, United Arab Emirates."
9251274,EAST OCEAN SHIPPING LTD-MAI,6403778,"Room 522, 129, Xishan Lu, Pudong Xinqu, Shanghai, China.",CRIUS LTD,6355621,"C/O: Shunxiang Ship Management Ltd Room 1502, Ship Research Building, 600, Minsheng Lu, Pudong Xinqu, Shanghai, China.",EAST OCEAN SHIPPING LTD-MAI,6403778,"Room 522, 129, Xishan Lu, Pudong Xinqu, Shanghai, China."
9251810,DELNAZ SHIP MANAGEMENT SDN BHD,6271661,"5433-1, Jalan J9, Taman Melawati, 53100, Kuala Lumpur, Malaysia.",CELESTIAL BLISS INVESTMENTS,5952808,"C/O: Delnaz Ship Management Sdn Bhd 5433-1, Jalan J9, Taman Melawati, 53100, Kuala Lumpur, Malaysia.",DELNAZ SHIP MANAGEMENT SDN BHD,6271661,"5433-1, Jalan J9, Taman Melawati, 53100, Kuala Lumpur, Malaysia."
9292228,UNKNOWN,9991001,Unknown,QUINN LTD,6300439,"C/O: Derecttor Co Ltd 31-06, Fuli Center, 6, Gangxing Lu, Zhongshan Qu, Dalian, Liaoning, 116001, China.",DERECTTOR CO LTD,6207391,"31-06, Fuli Center, 6, Gangxing Lu, Zhongshan Qu, Dalian, Liaoning, 116001, China."
9379703,HARRY VICTOR SHIP MGMT & OP,6142171,"Room 213, Atrium Centre, Khalid Bin Waleed Road, (Bank Street), PO Box 44432, Dubai, United Arab Emirates.",IQUITOS LTD,6488704,"C/O: Harry Victor Ship Management & Operation LLC Room 213, Atrium Centre, Khalid Bin Waleed Road, (Bank Street), PO Box 44432, Dubai, United Arab Emirates.",HARRY VICTOR SHIP MGMT & OP,6142171,"Room 213, Atrium Centre, Khalid Bin Waleed Road, (Bank Street), PO Box 44432, Dubai, United Arab Emirates."
9259185,GLOBAL SHIP MANAGEMENT LTD,6069318,"21st Floor, CMA Building, Connaught Road Central, Central, Hong Kong, China.",LOIRE SHIPPING INC,6137379,"C/O: Oceanlink Maritime DMCC Unit 2808, Plot JLT-PH1-F2A, HDS Tower, Jumeirah Lakes Towers, Dubai, United Arab Emirates.",OCEANLINK MARITIME DMCC,6450979,"Unit 2808, Plot JLT-PH1-F2A, HDS Tower, Jumeirah Lakes Towers, Dubai, United Arab Emirates."
9378620,BAI SHA HU SHIPMANAGEMENT CO,0137063,"Room 610, 1228, Zhennan Lu, Putuo Qu, Shanghai, 200000, China.",GONG YU SHIPPING LTD,0092291,"C/O: Bai Sha Hu Shipmanagement Co Ltd Room 610, 1228, Zhennan Lu, Putuo Qu, Shanghai, 200000, China.",BAI SHA HU SHIPMANAGEMENT CO,0137063,"Room 610, 1228, Zhennan Lu, Putuo Qu, Shanghai, 200000, China."
9589750,UNKNOWN,9991001,Unknown,RPTD SOLD RUSSIA,9992075,Unknown,RPTD SOLD RUSSIA,9992075,Unknown
9321677,FLEET TANQO PVT LTD,0261023,"Office 2001, 20th Floor, G-Square Business Park, Plot 25/26, Sector 30, Vashi, Navi Mumbai, Maharashtra, 400703, India.",WHITE CORAL CORP,6467748,"C/O: Fleet Tanqo Pvt Ltd Office 2001, 20th Floor, G-Square Business Park, Plot 25/26, Sector 30, Vashi, Navi Mumbai, Maharashtra, 400703, India.",FLEET TANQO PVT LTD,0261023,"Office 2001, 20th Floor, G-Square Business Park, Plot 25/26, Sector 30, Vashi, Navi Mumbai, Maharashtra, 400703, India."
9299666,UNKNOWN,9991001,Unknown,REEF MARINE INC,6431943,"Suite 212, Second Floor, Block A, Unity House, Palm Street, Victoria, Mahe Island, Seychelles.",REEF MARINE INC,6431943,"Suite 212, Second Floor, Block A, Unity House, Palm Street, Victoria, Mahe Island, Seychelles."
9259367,GOTHIKA MARINE LLC,6480350,"Unit 341-0, Al Zarooni Building, Al Murar, Dubai, United Arab Emirates.",DAVINA SHIPPING INC,6506091,"Trust Company Complex, Ajeltake Road, Ajeltake, Majuro MH 96960, Marshall Islands.",DAVINA SHIPPING INC,6506091,"Trust Company Complex, Ajeltake Road, Ajeltake, Majuro MH 96960, Marshall Islands."
9274616,UNKNOWN,9991001,Unknown,HS LA PRIDE LTD,6345731,"80, Broad Street, Monrovia, Liberia.",HS LA PRIDE LTD,6345731,"80, Broad Street, Monrovia, Liberia."
9256248,BABYLON NAVIGATION DMCC,6204848,"Unit 2502, Preatoni Tower, Cluster L2, Jumeirah Lakes Towers, Dubai, United Arab Emirates.",TOPSAIL SHIPHOLDING INC,6380987,"Trust Company Complex, Ajeltake Road, Ajeltake, Majuro MH 96960, Marshall Islands.",BABYLON NAVIGATION DMCC,6204848,"Unit 2502, Preatoni Tower, Cluster L2, Jumeirah Lakes Towers, Dubai, United Arab Emirates."
9194983,STELLAR OCEAN LTD,6244579,"Room 808B, 329, Hengfeng Lu, Jing'an Qu, Shanghai, 200070, China.",DELIVER MARINE LTD,6208165,"Room 12, 20th Floor, Ho King Commercial Centre, 2-16, Fa Yuen Street, Mong Kok, Kowloon, Hong Kong, China.",STELLAR OCEAN LTD,6244579,"Room 808B, 329, Hengfeng Lu, Jing'an Qu, Shanghai, 200070, China."
9331153,NAUTILUS FLEET MANAGEMENT LLC,0055927,"Apartment 31, Building 2, Estate 41, AZ 5006, Sumqayit Azerbaijan.",CAELVORN ANCHORWORKS LTD,0389848,"Unit 06, 10th Floor, Energy Plaza, 92, Granville Road, Tsim Sha Tsui, Kowloon, Hong Kong, China.",CAELVORN ANCHORWORKS LTD,0389848,"Unit 06, 10th Floor, Energy Plaza, 92, Granville Road, Tsim Sha Tsui, Kowloon, Hong Kong, China."
9301524,GLOBAL SHIP SOLUTIONS LLC,0025707,"Apartment 28, Building 5, Estate 41, AZ 5000, Sumqayit Azerbaijan.",INSIST LINE LTD,6508393,"Suite 10, 3rd Floor, La Ciotat, Mont Fleuri, Mahe Island Seychelles.",INSIST LINE LTD,6508393,"Suite 10, 3rd Floor, La Ciotat, Mont Fleuri, Mahe Island Seychelles."
9382712,LUMEN SHIP MANAGEMENT - FZCO,0019646,"Unit 405, 4th Floor, Jumeirah Business Center 5, Jumeirah Lakes Towers, Dubai, United Arab Emirates.",CENTAURI SERVICES LLC,0110029,"C/O: Lumen Ship Management - FZCO Unit 405, 4th Floor, Jumeirah Business Center 5, Jumeirah Lakes Towers, Dubai, United Arab Emirates.",LUMEN SHIP MANAGEMENT - FZCO,0019646,"Unit 405, 4th Floor, Jumeirah Business Center 5, Jumeirah Lakes Towers, Dubai, United Arab Emirates."
9253894,UNKNOWN,9991001,Unknown,WAVEVOYAGE VENTURES LTD,6475663,"Saint John's, Antigua & Barbuda.",WAVEVOYAGE VENTURES LTD,6475663,"Saint John's, Antigua & Barbuda."
9388766,VIJAYNAGAR VOYAGE SHIPPING PVT,0118850,"Unit 407, In Tower, Supertech Capetown, Sector 74, Noida, Dist Gautam Budh Nagar, Uttar Pradesh, 201301, India.",QENDIL MARINA LLC,0286628,"C/O: Sutlej Ship Management (OPC) Pvt Ltd Booth No 1, Pocket C, Sector 88, Chandigarh Sector 55, SAS Nagar (Mohali), Rupnagar 160055, India.",SUTLEJ SHIP MANAGEMENT OPC PVT,0019218,"Booth No 1, Pocket C, Sector 88, Chandigarh Sector 55, SAS Nagar (Mohali), Rupnagar 160055, India."
9299903,UNKNOWN,9991001,Unknown,HEDYNA CO LTD,6476879,"C/O: Sino Ship Management Co Ltd Room 1902, Easey Commercial Building, 253-261, Hennessy Road, Wan Chai, Hong Kong, China.",SINO SHIP MANAGEMENT CO LTD,6085922,"Room 1902, Easey Commercial Building, 253-261, Hennessy Road, Wan Chai, Hong Kong, China."
9341067,ZHENG XIN MARINE LTD,0135946,"Flat 06, 17th Floor, Wellborne Commercial Centre, 8, Java Road, North Point, Hong Kong, China.",HONG KONG DING FENG SHIPPING,0225021,"C/O: Zheng Xin Marine Ltd Flat 06, 17th Floor, Wellborne Commercial Centre, 8, Java Road, North Point, Hong Kong, China.",ZHENG XIN MARINE LTD,0135946,"Flat 06, 17th Floor, Wellborne Commercial Centre, 8, Java Road, North Point, Hong Kong, China."
9436018,NORDIC CRIUS SHIPPING CO LTD,0121584,"10th Floor, Block C, Qingdao Plaza, 381, Dunhua Lu, Shibei Qu, Qingdao, Shandong, China.",EURUS SHIPPING CO LTD-HKG,0214732,"C/O: Nordic Crius Shipping Co Ltd 10th Floor, Block C, Qingdao Plaza, 381, Dunhua Lu, Shibei Qu, Qingdao, Shandong, China.",NORDIC CRIUS SHIPPING CO LTD,0121584,"10th Floor, Block C, Qingdao Plaza, 381, Dunhua Lu, Shibei Qu, Qingdao, Shandong, China."
9289520,ATOS REMOTE SOLUTIONS,6457083,"Office 203, Institution of Engineers, Uttarakhand Centre, Saharanpur Road, Near ISBT Flyover, Dehra Dun, Uttar Pradesh, 248002, India.",SWISSMARLO LTD,0031042,"C/O: Atos Remote Solutions Office 203, Institution of Engineers, Uttarakhand Centre, Saharanpur Road, Near ISBT Flyover, Dehra Dun, Uttar Pradesh, 248002, India.",ATOS REMOTE SOLUTIONS,6457083,"Office 203, Institution of Engineers, Uttarakhand Centre, Saharanpur Road, Near ISBT Flyover, Dehra Dun, Uttar Pradesh, 248002, India."
9281011,ANSHULA SHIP MANAGEMENT,6513703,"Shop 4, Neel Sagar Sahakari, Mhada Colony, Navghar Road, Mulund (E), Mumbai, 400081, India.",PYAY SHIPPING LTD,0091690,"Room 13, 27th Floor, Ho King Commercial Centre, 2-16, Fa Yuen Street, Mong Kok, Kowloon, Hong Kong, China.",PYAY SHIPPING LTD,0091690,"Room 13, 27th Floor, Ho King Commercial Centre, 2-16, Fa Yuen Street, Mong Kok, Kowloon, Hong Kong, China."
9283241,ARGO TANKER GROUP LLC,6426832,"Premises 5001, Structure 2, Building 6, naberezhnaya Presnenskaya Moscow, 123112, Russia.",ARGO TANKER GROUP LLC,6426832,"Premises 5001, Structure 2, Building 6, naberezhnaya Presnenskaya Moscow, 123112, Russia.",ARGO TANKER GROUP LLC,6426832,"Premises 5001, Structure 2, Building 6, naberezhnaya Presnenskaya Moscow, 123112, Russia."
9311622,DREAMER SHIPMANAGEMENT LLC-FZ,0032244,"6th Floor, Meydan Grandstand, Al Meydan Road, Nad Al Sheba, Dubai, United Arab Emirates.",WHITE AGATE MARINE SPC,0138702,"C/O: Dreamer Shipmanagement LLC-FZ 6th Floor, Meydan Grandstand, Al Meydan Road, Nad Al Sheba, Dubai, United Arab Emirates.",DREAMER SHIPMANAGEMENT LLC-FZ,0032244,"6th Floor, Meydan Grandstand, Al Meydan Road, Nad Al Sheba, Dubai, United Arab Emirates."
9280366,FUMINGZHOU SHIPS CO LTD,0101737,"Room 1901, Block A, 177, Tailiu Lu, Shibei Qu, Qingdao, Shandong, 266000, China.",TIAN MU SHIPPING LTD,0136621,"C/O: Fumingzhou Ships Co Ltd Room 1901, Block A, 177, Tailiu Lu, Shibei Qu, Qingdao, Shandong, 266000, China.",FUMINGZHOU SHIPS CO LTD,0101737,"Room 1901, Block A, 177, Tailiu Lu, Shibei Qu, Qingdao, Shandong, 266000, China."
9297371,XUE BANG SHAN SHIPMANAGEMENT,0137081,"Room 1302, 300, Chuanhong Lu, Pudong Xinqu, Shanghai, 200000, China.",MORONG SHIPPING INC,6474957,"3rd Floor, Standard Chartered Tower, Bank Street, Cybercity, Ebene, Mauritius.",MORONG SHIPPING INC,6474957,"3rd Floor, Standard Chartered Tower, Bank Street, Cybercity, Ebene, Mauritius."
9683726,VOLGOTRANS LLC,5511841,"ul Belorusskaya 132, Samara, 443042, Russia.",VOLGOTRANS LLC,5511841,"ul Belorusskaya 132, Samara, 443042, Russia.",VOLGOTRANS LLC,5511841,"ul Belorusskaya 132, Samara, 443042, Russia."
9290828,JIN GANG SHAN SHIPMANAGEMENT,0137501,"Room 1510, 1099, Xiangyin Lu, Yangpu Qu, Shanghai, China.",VENKATESWARA MARITIME INC,0203477,"Room 102, Aarti Chambers, Mont Fleuri, Victoria, Mahe Island, Seychelles.",VENKATESWARA MARITIME INC,0203477,"Room 102, Aarti Chambers, Mont Fleuri, Victoria, Mahe Island, Seychelles."
9298595,ARGOS NAUTES SHIPPING - FZCO,0280911,"Office 1401, Prism Tower, Al Mustaqbal Street, Business Bay, Dubai, United Arab Emirates.",GRIGOR MARITIME CO SA,0270769,"13th Floor, ADR Building, Avenida Samuel Lewis y Calle 58, Panama City, Panama.",GRIGOR MARITIME CO SA,0270769,"13th Floor, ADR Building, Avenida Samuel Lewis y Calle 58, Panama City, Panama."
9326861,COUGAR NAUTIC INC,6355581,"Oficina 16L, piso 16, Panama Design Center PDC, Calle 56 Este, Panama City, Panama.",AHOY SA,6370725,"C/O: Solid Energy Solutions DMCC Unit 3349, Level 1, DMCC Business Centre, Jewellery & Gemplex 3, Jumeirah Lakes Towers, Dubai, United Arab Emirates.",SOLID ENERGY SOLUTIONS,6395251,"Unit 3349, Level 1, DMCC Business Centre, Jewellery & Gemplex 3, Jumeirah Lakes Towers, Dubai, United Arab Emirates."
9283289,DAISEA SHIPPING LTD,6275633,"Room 1004-3, Ganghang Building A, 619, Dingshen Lu, Qiandao Jiedao, Dinghai Qu, Zhoushan, Zhejiang, China.",ARMADA SHIPTRADE CO,6275651,"C/O: Winocean Management Ltd Room 1902, Easey Commercial Building, 253-261, Hennessy Road, Wan Chai, Hong Kong, China.",WINOCEAN MANAGEMENT LTD,6275647,"Room 1902, Easey Commercial Building, 253-261, Hennessy Road, Wan Chai, Hong Kong, China."
9329760,UNKNOWN,9991001,Unknown,CARAVELLA LLC-FZ,6423149,"M Floor, Business Center 1, The Meydan Hotel, Nad Al Sheba, Dubai, United Arab Emirates.",CARAVELLA LLC-FZ,6423149,"M Floor, Business Center 1, The Meydan Hotel, Nad Al Sheba, Dubai, United Arab Emirates."
9276030,VOV DENIZCILIK VE TICARET LTD,0307253,"Ic Kapi 291, Emar Residence, Libadiye Caddesi 82E, Unalan Mah, Uskudar, Istanbul, Turkey.",REYA MARINE CORP,0116456,"C/O: Vov Denizcilik ve Ticaret Ltd Sti Ic Kapi 291, Emar Residence, Libadiye Caddesi 82E, Unalan Mah, Uskudar, Istanbul, Turkey.",VOV DENIZCILIK VE TICARET LTD,0307253,"Ic Kapi 291, Emar Residence, Libadiye Caddesi 82E, Unalan Mah, Uskudar, Istanbul, Turkey."
9258026,AQUA FLEET MANAGEMENT LLC,0052896,"Apartment 25, Building 5, Sulh Street Sumqayit Azerbaijan.",KINGS & QUEENS MARINE CORP,6402620,"C/O: 'Aqua Fleet Management' LLC Apartment 25, Building 5, Sulh Street Sumqayit Azerbaijan.",AQUA FLEET MANAGEMENT LLC,0052896,"Apartment 25, Building 5, Sulh Street Sumqayit Azerbaijan."
9374868,HUNG PHAT MARITIME TRADING,6198018,"Service Zone 4, Level 6, R2 Tower, The Everrich Building, 968, 3 Thang 2, Ward 15, District 11, Ho Chi Minh City, Vietnam.",HUNG PHAT MARITIME TRADING,6198018,"Service Zone 4, Level 6, R2 Tower, The Everrich Building, 968, 3 Thang 2, Ward 15, District 11, Ho Chi Minh City, Vietnam.",HUNG PHAT MARITIME TRADING,6198018,"Service Zone 4, Level 6, R2 Tower, The Everrich Building, 968, 3 Thang 2, Ward 15, District 11, Ho Chi Minh City, Vietnam."
9277747,MARINE MAX SHIP MANAGEMENET,6318458,"A312, Shiv Chamber, Plot 21, Sector 11, CBD Belapur, Navi Mumbai, Maharashtra, 400614, India.",VIRGO INC,6238195,"C/O: Marine Max Ship Management (OPC) Pvt Ltd A312, Shiv Chamber, Plot 21, Sector 11, CBD Belapur, Navi Mumbai, Maharashtra, 400614, India.",VIRGO INC,6238195,"C/O: Marine Max Ship Management (OPC) Pvt Ltd A312, Shiv Chamber, Plot 21, Sector 11, CBD Belapur, Navi Mumbai, Maharashtra, 400614, India."
9256913,UNKNOWN,9991001,Unknown,BAIKAL SHIPPING & TRADING CORP,6282811,"C/O: Vision Ship Management LLP Unit 401, Space 912 Commercial Complex, Mira Bhayandar Road, Mira Road (E), Mira Bhayandar, Mumbai, 401107, India.",VISION SHIP MANAGEMENT LLP,6379560,"Unit 401, Space 912 Commercial Complex, Mira Bhayandar Road, Mira Road (E), Mira Bhayandar, Mumbai, 401107, India."
9346873,DANNY TEY HONGKONG CO LTD,0140836,"Room 216, Building 9, 265, Putuo Lu, Chuansha Xinzhen, Pudong Xinqu, Shanghai, 201299, China.",DILEMMA LAU LTD,0120918,"Unit D3, 12th Floor, Luk Hop Industrial Building, 8, Luk Hop Street, San Po Kong, Hong Kong, China.",DILEMMA LAU LTD,0120918,"Unit D3, 12th Floor, Luk Hop Industrial Building, 8, Luk Hop Street, San Po Kong, Hong Kong, China."
9212400,ONTARIO MARITIME SERVICES SA,0221941,"Flat 502, Vakratund Kaveri Enterprises, Plot 23, Sector 10, Taloja, Phase 1, Raigarh, Navi Mumbai, Maharashtra, 410208, India.",CHARTCHEMICAL SA,5812493,"C/O: IMS Ltd Unit 0195, Jalan Merdeka, Labuan, Malaysia.",IMS LTD,5744389,"Unit 0195, Jalan Merdeka, Labuan, Malaysia."
9196644,UNKNOWN,9991001,Unknown,LUFINDO HOLDING LTD,6174627,"C/O: Ravel Ship Management Pvt Ltd Plot 75A, Sneha & Neha Swami Vivekananda Nagar, Samayapuram Main Road, Chennai, 600116, India.",INAYA SHIP MANAGEMENT PVT LTD,6176107,"Shop 1 & 2, Building 48F, 21st Commercial Street, Phase 2 Extension Defence Housing Authority, Karachi, Pakistan."
9345623,ZHENG ZHOU JIN BU SHIP,0107325,"Room 1005, 1416, Daduhe Lu, Putuo Qu, Shanghai, 200000, China.",JEEVA SHIPPING LTD,0119858,"La Poudriere Lane, Victoria, Mahe Island, Seychelles.",JEEVA SHIPPING LTD,0119858,"La Poudriere Lane, Victoria, Mahe Island, Seychelles."
9221671,TIGHTSHIP SHIPPING MANAGEMENT,6344264,"Office B/103, Shelton Sapphire, Plots 18 & 19, Sector 15, CBD Belapur, Navi Mumbai, Maharashtra, 400614, India.",ELZA SHIPPING SA,6243757,"C/O: Tightship Shipping Management (OPC) Pvt Ltd Office B/103, Shelton Sapphire, Plots 18 & 19, Sector 15, CBD Belapur, Navi Mumbai, Maharashtra, 400614, India.",TIGHTSHIP SHIPPING MANAGEMENT,6344264,"Office B/103, Shelton Sapphire, Plots 18 & 19, Sector 15, CBD Belapur, Navi Mumbai, Maharashtra, 400614, India."
9383950,GLORY SHIPPING HK LTD,0082952,"Unit 613, 6th Floor, LT Tower, 31, Chong Yip Street, Kwun Tong, Kowloon, Hong Kong, China.",EAST HOPE HONG KONG LTD,6392755,"C/O: Glory Shipping HK Ltd Unit 613, 6th Floor, LT Tower, 31, Chong Yip Street, Kwun Tong, Kowloon, Hong Kong, China.",GLORY SHIPPING HK LTD,0082952,"Unit 613, 6th Floor, LT Tower, 31, Chong Yip Street, Kwun Tong, Kowloon, Hong Kong, China."
9321421,UNKNOWN,9991001,Unknown,EMBER MARITIME INC,6449208,"C/O: Vision Ship Management LLP Unit 401, Space 912 Commercial Complex, Mira Bhayandar Road, Mira Road (E), Mira Bhayandar, Mumbai, 401107, India.",OCEANIC OPERATIONS FZ-LLC,0105068,"FDBC2539, Compass Building, Al Shohada Road, Al Hamra Industrial Zone, Ras al Khaimah, United Arab Emirates."
9333412,AURINA DENIZCILIK VE TICARET,0300361,"Ic Kapi 188, Quasar 76, Buyukdere Caddesi Fulya Mah, Sisli, 34381, Istanbul, Turkey.",KENTIA CARRIERS LTD,0109591,"C/O: Aurina Denizcilik ve Ticaret Ltd Sti Ic Kapi 188, Quasar 76, Buyukdere Caddesi Fulya Mah, Sisli, 34381, Istanbul, Turkey.",AURINA DENIZCILIK VE TICARET,0300361,"Ic Kapi 188, Quasar 76, Buyukdere Caddesi Fulya Mah, Sisli, 34381, Istanbul, Turkey."
9308170,UNKNOWN,9991001,Unknown,SEAGULL SHIPPING CO LTD,0147590,"3rd Floor, Savina Building, 1, Dinh Le, Hoan Kiem District, Hanoi City, Vietnam.",SEAGULL SHIPPING CO LTD,0147590,"3rd Floor, Savina Building, 1, Dinh Le, Hoan Kiem District, Hanoi City, Vietnam."
9259745,STAR OCEAN SHIPMANAGE LTD,6272611,"Room 1706A, 17th Floor, Building A, World Trade Tower, 6, Xianggang Zhonglu, Shinan Qu, Qingdao, Shandong, China.",HONG KONG ZHONGTUO GROUP CO,6361917,"C/O: Star Ocean Shipmanage Ltd Room 1706A, 17th Floor, Building A, World Trade Tower, 6, Xianggang Zhonglu, Shinan Qu, Qingdao, Shandong, China.",STAR OCEAN SHIPMANAGE LTD,6272611,"Room 1706A, 17th Floor, Building A, World Trade Tower, 6, Xianggang Zhonglu, Shinan Qu, Qingdao, Shandong, China."
9387279,TARABYA LOGISTICS LTD,0108990,"154A/155A, Building N280, Al Taweelah, Abu Dhabi, United Arab Emirates.",LAGO INTERNATIONAL SA,6505779,"C/O: The Zulu Ships Management & Operation - Sole Proprietorship LLC Office 105, Madinat Zayed Tower, Muroor Road, Abu Dhabi, United Arab Emirates.",ZULU SHIPS MANAGEMENT,6509771,"Office 105, Madinat Zayed Tower, Muroor Road, Abu Dhabi, United Arab Emirates."
9308065,UNKNOWN,9991001,Unknown,LALIYA SHIPPING CORP,6505782,Unknown,VAIGAI LINES INC,6337157,"Trust Company Complex, Ajeltake Road, Ajeltake, Majuro MH 96960, Marshall Islands."
9382073,UNKNOWN,9991001,Unknown,SOUTHBULK SHIPPING LTD,6367041,"C/O: Algae Ship Charter - FZCO Building A1, Dubai Digital Park, Dubai Silicon Oasis, Dubai, United Arab Emirates.",ALGAE SHIP CHARTER FZCO,6508402,"Building A1, Dubai Digital Park, Dubai Silicon Oasis, Dubai, United Arab Emirates."
9408530,IRONCLAD GROUP CO LTD,0260802,"Room 1220, Building 1, Dongjingwan Community, Zhijiang Jie, Jiaojiang Qu, Taizhou, Zhejiang, China.",IRONCLAD GROUP CO LTD,0260802,"Room 1220, Building 1, Dongjingwan Community, Zhijiang Jie, Jiaojiang Qu, Taizhou, Zhejiang, China.",AETHER CRAFT CO LTD,0152808,"Room 801, Building B, Donggang Caifu Center Building, 211, Qilin Lu, Donggang Jiedao, Putuo Qu, Zhoushan, Zhejiang, China."
9276573,PAX GLORIA SHIPPING LTD,6495431,"Room 2109, 21st Floor, C C Wu Building, 302-308, Hennessy Road, Wan Chai, Hong Kong, China.",SUN SCIENCE INTERNATIONAL,6495856,"Rooms 1318-19, Hollywood Plaza, 610, Nathan Road, Mong Kok, Kowloon, Hong Kong, China.",SUN SCIENCE INTERNATIONAL,6495856,"Rooms 1318-19, Hollywood Plaza, 610, Nathan Road, Mong Kok, Kowloon, Hong Kong, China."
9408205,NURLIS STORMCORE LLC,0289619,"Apartment 86, Building 5, Estate 15, AZ 5000, Sumqayit Azerbaijan.",XANTIX VENTURE LTD,0275901,"C/O: 'Nurlis Stormcore' LLC Apartment 86, Building 5, Estate 15, AZ 5000, Sumqayit Azerbaijan.",NURLIS STORMCORE LLC,0289619,"Apartment 86, Building 5, Estate 15, AZ 5000, Sumqayit Azerbaijan."
9513139,GLORY SHIPPING HK LTD,0082952,"Unit 613, 6th Floor, LT Tower, 31, Chong Yip Street, Kwun Tong, Kowloon, Hong Kong, China.",EAST VICTORY LTD,6346190,"C/O: Glory Shipping HK Ltd Unit 613, 6th Floor, LT Tower, 31, Chong Yip Street, Kwun Tong, Kowloon, Hong Kong, China.",GLORY SHIPPING HK LTD,0082952,"Unit 613, 6th Floor, LT Tower, 31, Chong Yip Street, Kwun Tong, Kowloon, Hong Kong, China."
9459242,NAVIGENIX SHIPMANAGEMENT LLC,6463983,"Apartment 17, House 1, M/D 9, AZ 5000, Sumqayit Azerbaijan.",TRANQUIL MEADOW CORP,6493449,"Suite 10, 3rd Floor, La Ciotat, Mont Fleuri, Mahe Island Seychelles.",TRANQUIL MEADOW CORP,6493449,"Suite 10, 3rd Floor, La Ciotat, Mont Fleuri, Mahe Island Seychelles."
9236248,TRIVIALITY SHIPPING LLC,0194685,"4th Floor, Fifty One Tower, Marasi Drive, Dubai, United Arab Emirates.",CELESTIAL OVERSEAS CO LTD,0179391,"C/O: Triviality Shipping LLC 4th Floor, Fifty One Tower, Marasi Drive, Dubai, United Arab Emirates.",TRIVIALITY SHIPPING LLC,0194685,"4th Floor, Fifty One Tower, Marasi Drive, Dubai, United Arab Emirates."
9260823,NEPTUNE NAVIGATORS' LLC,0014574,"Apartment 23, Building 5A, Estate 76, AZ 5005, Sumqayit Azerbaijan.",VOYAGE CRAFT INC,6503928,"Suite 10, 3rd Floor, La Ciotat, Mont Fleuri, Mahe Island Seychelles.",VOYAGE CRAFT INC,6503928,"Suite 10, 3rd Floor, La Ciotat, Mont Fleuri, Mahe Island Seychelles."
9283306,SEASAILOR HOLDINGS LTD,6504621,"The Ursula Jones Building, PO Box 3511, Coolidge, Saint John's, Antigua & Barbuda.",SEASAILOR HOLDINGS LTD,6504621,"The Ursula Jones Building, PO Box 3511, Coolidge, Saint John's, Antigua & Barbuda.",SEASAILOR HOLDINGS LTD,6504621,"The Ursula Jones Building, PO Box 3511, Coolidge, Saint John's, Antigua & Barbuda."
9262766,SHUNXIANG SHIP MANAGEMENT LTD,6162010,"Room 1502, Ship Research Building, 600, Minsheng Lu, Pudong Xinqu, Shanghai, China.",EUNOMIA LTD,6205948,"C/O: Shunxiang Ship Management Ltd Room 1502, Ship Research Building, 600, Minsheng Lu, Pudong Xinqu, Shanghai, China.",SHUNXIANG SHIP MANAGEMENT LTD,6162010,"Room 1502, Ship Research Building, 600, Minsheng Lu, Pudong Xinqu, Shanghai, China."
9224441,UNKNOWN,9991001,Unknown,TRIDENT BEAUTY LTD,6443597,"C/O: Vigor Marine Services LLP Shop 113, Plot 9, Bhoomi Mall, Sector 15, CBD Belapur, Mumbai, 400614, India.",VIGOR MARINE SERVICES LLP,6497659,"Shop 113, Plot 9, Bhoomi Mall, Sector 15, CBD Belapur, Mumbai, 400614, India."
9365752,UNKNOWN,9991001,Unknown,ARTEMIS HEART LTD,6374161,"2nd Floor, Allied Building Annex, Francis Rachel Street, Victoria, Mahe Island, Seychelles.",ARTEMIS HEART LTD,6374161,"2nd Floor, Allied Building Annex, Francis Rachel Street, Victoria, Mahe Island, Seychelles."
9307815,JIU ZHOU SHIPMANAGEMENT CO LTD,6514471,"Room 2a-302, 6, Xiaowang Zhilu, Shinan Qu, Qingdao, Shandong, 266000, China.",NARMADA MARITIME INC,0236970,"Suite 1, Commerical House One, Eden Island Seychelles.",NARMADA MARITIME INC,0236970,"Suite 1, Commerical House One, Eden Island Seychelles."
9354636,ENEYA LLC,6267148,"Room 18, Building 29, ulitsa Chkalova, derevnya Olya, Olinskiy sel'sovet, Limanskiy, Astrakhan, 416425, Russia.",ASTRA LLC,6314941,"C/O: 'Eneya' LLC Room 18, Building 29, ulitsa Chkalova, derevnya Olya, Olinskiy sel'sovet, Limanskiy, Astrakhan, 416425, Russia.",ENEYA LLC,6267148,"Room 18, Building 29, ulitsa Chkalova, derevnya Olya, Olinskiy sel'sovet, Limanskiy, Astrakhan, 416425, Russia."
9012886,ARGOS SHIPPING & MGMT - FZE,0192865,"Premises BC 1305472, C1 Building, Ajman Free Zone, Ajman, United Arab Emirates.",NOVA LINES INC,6506627,"Trust Company Complex, Ajeltake Road, Ajeltake, Majuro MH 96960, Marshall Islands.",NOVA LINES INC,6506627,"Trust Company Complex, Ajeltake Road, Ajeltake, Majuro MH 96960, Marshall Islands."
9388742,CHARAI SEA SHIPPING PVT LTD,0112793,"81F, Express Zone Mall, Western Express Highway, Malad (E), Mumbai, 400097, India.",SHAN HEI SHIPPING LTD,0093135,"Room 13, 27th Floor, Ho King Commercial Centre, 2-16, Fa Yuen Street, Mong Kok, Kowloon, Hong Kong, China.",SHAN HEI SHIPPING LTD,0093135,"Room 13, 27th Floor, Ho King Commercial Centre, 2-16, Fa Yuen Street, Mong Kok, Kowloon, Hong Kong, China."
9395379,NORTH STAR SHIP MANAGEMENT,6236477,"A2.31.OT.01, Vinhome Golden River Area, 2, Ton Duc Thang, District 1, Ho Chi Minh City, Vietnam.",PACIFIC LOGISTIC & MARITIME,6419606,"108, Tran Dinh Xu, District 1, Ho Chi Minh City, 700000, Vietnam.",PACIFIC LOGISTIC & MARITIME,6419606,"108, Tran Dinh Xu, District 1, Ho Chi Minh City, 700000, Vietnam."
9293959,UNKNOWN,9991001,Unknown,LEDRI SHIPPING CO LTD,6374382,"Daire 345, Kat 35, A1 Block, Mazaya Plaza Ritim, Zuhal Caddesi 46, Cevizli Mah, Maltepe, 34846, Istanbul, Turkey.",LEDRI SHIPPING CO LTD,6374382,"Daire 345, Kat 35, A1 Block, Mazaya Plaza Ritim, Zuhal Caddesi 46, Cevizli Mah, Maltepe, 34846, Istanbul, Turkey."
9531387,UNKNOWN,9991001,Unknown,AAA MARITIME SHIPPING SA,6100681,"C/O: Etihad Engineering & Marine Services FZC Hamriyah Free Zone, PO Box 42235, Sharjah, United Arab Emirates.",ETIHAD ENGINEERING & MARINE,5700690,"Hamriyah Free Zone, PO Box 42235, Sharjah, United Arab Emirates."
9402469,CORMORANTAY CO LTD,6468406,"Room 301, Building B1, Zhujiajian Jiedao, Putuo Qu, Zhoushan, Zhejiang, 316000, China.",HERA GAM LTD,6473636,"Unit 18, 9th Floor, Tower A, New Mandarin Plaza, 14, Science Museum Road, Tsim Sha Tsui East, Kowloon, Hong Kong, China.",HERA GAM LTD,6473636,"Unit 18, 9th Floor, Tower A, New Mandarin Plaza, 14, Science Museum Road, Tsim Sha Tsui East, Kowloon, Hong Kong, China."
9238052,HONG KONG RONG DA SHIPPING LTD,6358586,"Office 3B, 3rd Floor, Bank Tower, 351 & 353, King's Road, North Point, Hong Kong, China.",HK YONGYE SHIP LTD/ ZHANG YONG,6360967,"Room 1003, 10/F, Tower 1, Lippo Centre, 89, Queensway, Central, Hong Kong, China.",HONG KONG RONG DA SHIPPING LTD,6358586,"Office 3B, 3rd Floor, Bank Tower, 351 & 353, King's Road, North Point, Hong Kong, China."
9263643,MAGIC SHIPPING LTD,6468803,"Room 1007, 28, Xinjinqiao Lu, Pudong Xinqu, Shanghai, 200136, China.",SAGITTARIUS MARINE LTD-MAI,6490149,"C/O: Magic Shipping Ltd Room 1007, 28, Xinjinqiao Lu, Pudong Xinqu, Shanghai, 200136, China.",MAGIC SHIPPING LTD,6468803,"Room 1007, 28, Xinjinqiao Lu, Pudong Xinqu, Shanghai, 200136, China."
9166675,GAFFODIL CO LTD,6462631,"Room 3-2707, Block Yujin, 21, Dagong Jie, Zhongshan Qu, Dalian, Liaoning, China.",ASIA AFFLUENCE LTD,6127081,"C/O: Gaffodil Co Ltd Room 3-2707, Block Yujin, 21, Dagong Jie, Zhongshan Qu, Dalian, Liaoning, China.",GAFFODIL CO LTD,6462631,"Room 3-2707, Block Yujin, 21, Dagong Jie, Zhongshan Qu, Dalian, Liaoning, China."
9235725,LIAONING DINGFENG CNC,0127005,"16, Hongqi Xijie, Qianshan Qu, Anshan, Liaoning China.",FUGA SHIPMANAGEMENT SA,6255251,"Ajeltake Road, Ajeltake, Majuro MH Marshall Islands.",FUGA SHIPMANAGEMENT SA,6255251,"Ajeltake Road, Ajeltake, Majuro MH Marshall Islands."
9326718,LIGHT NAVIGATION LLC,6505102,"Apartment 130, House 5, Block 15, AZ 5000, Sumqayit Azerbaijan.",VELLUM SKY LTD,0258245,"Ground Floor, Le Sanalele Complex, Vaea Street, Apia, Upolu Island, Samoa.",VELLUM SKY LTD,0258245,"Ground Floor, Le Sanalele Complex, Vaea Street, Apia, Upolu Island, Samoa."
9257802,HARBOR HARMONY SHIPMANAGEMENT,6465830,"Apartment 29, House 42, Block 15, Yanvar 20, AZ 5000, Sumqayit Azerbaijan.",WHISPERING WILLOW CORP,6487198,"Suite 10, 3rd Floor, La Ciotat, Mont Fleuri, Mahe Island Seychelles.",WHISPERING WILLOW CORP,6487198,"Suite 10, 3rd Floor, La Ciotat, Mont Fleuri, Mahe Island Seychelles."
9280873,UNKNOWN,9991001,Unknown,SUMMIT STREAMLINE INC,0055198,"Office E, 20th Floor, Global Plaza Building, Calle 50, Panama City, Panama.",SUMMIT STREAMLINE INC,0055198,"Office E, 20th Floor, Global Plaza Building, Calle 50, Panama City, Panama."
9826902,ALBATROSS SHIPMANAGEMENT,0156598,"6th Floor, Meydan Grandstand, Al Meydan Road, Nad Al Sheba, Dubai, United Arab Emirates.",WHITE AGATE MARINE SPC,0138702,"C/O: Dreamer Shipmanagement LLC-FZ 6th Floor, Meydan Grandstand, Al Meydan Road, Nad Al Sheba, Dubai, United Arab Emirates.",ALBATROSS SHIPMANAGEMENT,0156598,"6th Floor, Meydan Grandstand, Al Meydan Road, Nad Al Sheba, Dubai, United Arab Emirates."
9820776,INZUR GEMI ISLETMESI LTD STI,6370331,"C1 Blok, Celik Apt, Hos Sohbet Sokak 18/4, Gayrettepe Mah, Besiktas, 34349, Istanbul, Turkey.",FORTIKA NAVIGATION LTD,6055217,"C/O: Inzur Gemi Isletmesi Ltd Sti C1 Blok, Celik Apt, Hos Sohbet Sokak 18/4, Gayrettepe Mah, Besiktas, 34349, Istanbul, Turkey.",INZUR GEMI ISLETMESI LTD STI,6370331,"C1 Blok, Celik Apt, Hos Sohbet Sokak 18/4, Gayrettepe Mah, Besiktas, 34349, Istanbul, Turkey."
9323986,CHARAI SEA SHIPPING PVT LTD,0112793,"81F, Express Zone Mall, Western Express Highway, Malad (E), Mumbai, 400097, India.",TIAN LONG NAVIGATION LTD,0080766,"C/O: Charai Sea Shipping Pvt Ltd 81F, Express Zone Mall, Western Express Highway, Malad (E), Mumbai, 400097, India.",CHARAI SEA SHIPPING PVT LTD,0112793,"81F, Express Zone Mall, Western Express Highway, Malad (E), Mumbai, 400097, India."
9272931,KOLLAM KREW SHIPPING PVT LTD,0233785,"Unit G107, Express Zone Mall, B Wing, Western Express Highway, Goregaon (E), Mumbai, 400063, India.",FENG YU MARITIME LTD,0093489,"C/O: Kollam Krew Shipping Pvt Ltd Unit G107, Express Zone Mall, B Wing, Western Express Highway, Goregaon (E), Mumbai, 400063, India.",KOLLAM KREW SHIPPING PVT LTD,0233785,"Unit G107, Express Zone Mall, B Wing, Western Express Highway, Goregaon (E), Mumbai, 400063, India."
9185528,UNKNOWN,9991001,Unknown,ZENITH LOCUS LTD,0314401,"Suite 10, 3rd Floor, La Ciotat, Mont Fleuri, Mahe Island Seychelles.",ZENITH LOCUS LTD,0314401,"Suite 10, 3rd Floor, La Ciotat, Mont Fleuri, Mahe Island Seychelles."
9503304,UNIVERSAL TRANSPORT GROUP LLC,6191316,"Room 2/1, Building 3, ul Gilyarovskogo 39, Moscow, 129110, Russia.",SC PERSPECTIVE LTD,0108283,"Ofis 903/4, Etazh 9, Pom 20, ul Repina 2/27, Khimki, Moscow Oblast, 141402, Russia.",SC PERSPECTIVE LTD,0108283,"Ofis 903/4, Etazh 9, Pom 20, ul Repina 2/27, Khimki, Moscow Oblast, 141402, Russia."
9289738,CHARAI SEA SHIPPING PVT LTD,0112793,"81F, Express Zone Mall, Western Express Highway, Malad (E), Mumbai, 400097, India.",RPTD SOLD UNDISCLOSED INTEREST,9991942,Unknown,RPTD SOLD UNDISCLOSED INTEREST,9991942,Unknown
9610793,SOUTH FLEET LTD,6450877,"Kab 3, Pom 7-H, Liter A, ul Vasi Alekseyeva 14, St Petersburg, 198188, Russia.",SOUTH FLEET LTD,6450877,"Kab 3, Pom 7-H, Liter A, ul Vasi Alekseyeva 14, St Petersburg, 198188, Russia.",SOUTH FLEET LTD,6450877,"Kab 3, Pom 7-H, Liter A, ul Vasi Alekseyeva 14, St Petersburg, 198188, Russia."
9190078,GLORY INTERNATIONAL FZ-LLC,6116541,"RAKIA Amenity Center, al-Jazirat al-Hamra, PO Box 121813, Ras al Khaimah, United Arab Emirates.",GLORY INTERNATIONAL FZ-LLC,6116541,"RAKIA Amenity Center, al-Jazirat al-Hamra, PO Box 121813, Ras al Khaimah, United Arab Emirates.",GLORY INTERNATIONAL FZ-LLC,6116541,"RAKIA Amenity Center, al-Jazirat al-Hamra, PO Box 121813, Ras al Khaimah, United Arab Emirates."
9311309,GLORY INTERNATIONAL FZ-LLC,6116541,"RAKIA Amenity Center, al-Jazirat al-Hamra, PO Box 121813, Ras al Khaimah, United Arab Emirates.",GLOBAL LADY SHIPPING LINES INC,6128835,"C/O: Glory International FZ-LLC RAKIA Amenity Center, al-Jazirat al-Hamra, PO Box 121813, Ras al Khaimah, United Arab Emirates.",GLORY INTERNATIONAL FZ-LLC,6116541,"RAKIA Amenity Center, al-Jazirat al-Hamra, PO Box 121813, Ras al Khaimah, United Arab Emirates."
9005338,GLORY INTERNATIONAL FZ-LLC,6116541,"RAKIA Amenity Center, al-Jazirat al-Hamra, PO Box 121813, Ras al Khaimah, United Arab Emirates.",ASPHALT SHIPPING LINES INC,6056303,"C/O: Glory International FZ-LLC RAKIA Amenity Center, al-Jazirat al-Hamra, PO Box 121813, Ras al Khaimah, United Arab Emirates.",GLORY INTERNATIONAL FZ-LLC,6116541,"RAKIA Amenity Center, al-Jazirat al-Hamra, PO Box 121813, Ras al Khaimah, United Arab Emirates."
9221267,GLORY INTERNATIONAL FZ-LLC,6116541,"RAKIA Amenity Center, al-Jazirat al-Hamra, PO Box 121813, Ras al Khaimah, United Arab Emirates.",EVEREST SHIPPING LINES INC,6216390,"C/O: Glory International FZ-LLC RAKIA Amenity Center, al-Jazirat al-Hamra, PO Box 121813, Ras al Khaimah, United Arab Emirates.",GLORY INTERNATIONAL FZ-LLC,6116541,"RAKIA Amenity Center, al-Jazirat al-Hamra, PO Box 121813, Ras al Khaimah, United Arab Emirates."
9113094,GLORY INTERNATIONAL FZ-LLC,6116541,"RAKIA Amenity Center, al-Jazirat al-Hamra, PO Box 121813, Ras al Khaimah, United Arab Emirates.",PEAK SHIPPING LINES INC,6216426,"C/O: Glory International FZ-LLC RAKIA Amenity Center, al-Jazirat al-Hamra, PO Box 121813, Ras al Khaimah, United Arab Emirates.",GLORY INTERNATIONAL FZ-LLC,6116541,"RAKIA Amenity Center, al-Jazirat al-Hamra, PO Box 121813, Ras al Khaimah, United Arab Emirates."
9309227,UNKNOWN,9991001,Unknown,DIGNITY SHIPPING LINES INC,6243567,"C/O: Elite Shipping & Trading FZC Warehouse LV-60-D, Hamriyah Free Zone, Sharjah, United Arab Emirates.",ELITE SHIPPING & TRADING FZC,6440337,"Warehouse LV-60-D, Hamriyah Free Zone, Sharjah, United Arab Emirates."
9198082,OCEAN DOLPHIN SHIP MANAGEMENT,6270796,"Room 808A, 329, Hengfeng Lu, Jing'an Qu, Shanghai, 200070, China.",GOZOSO GROUP LTD,6264449,"C/O: Ocean Dolphin Ship Management Ltd Room 808A, 329, Hengfeng Lu, Jing'an Qu, Shanghai, 200070, China.",OCEAN DOLPHIN SHIP MANAGEMENT,6270796,"Room 808A, 329, Hengfeng Lu, Jing'an Qu, Shanghai, 200070, China."
9430210,STAKSEL CO LTD,4234210,"Room 1, ul M Gorkogo 78B, Samara, 443099, Russia.",SILVERINA HOLDING SA,6030381,"C/O: Staksel Co Ltd Room 1, ul M Gorkogo 78B, Samara, 443099, Russia.",STAKSEL CO LTD,4234210,"Room 1, ul M Gorkogo 78B, Samara, 443099, Russia."
9255684,SEA VIKING SHIP MANAGEMENT,6507320,"DSO-IFZA, IFZA Properties, Dubai Silicon Oasis, Dubai, United Arab Emirates.",EVEREST SEA NAVIGATION SA,6452167,"80, Broad Street, Monrovia, Liberia.",EVEREST SEA NAVIGATION SA,6452167,"80, Broad Street, Monrovia, Liberia."
9252967,UNKNOWN,9991001,Unknown,BRIGHT LEXY SHIPPING LTD,0356623,"Trust Company Complex, Ajeltake Road, Ajeltake, Majuro MH 96960, Marshall Islands.",BRIGHT LEXY SHIPPING LTD,0356623,"Trust Company Complex, Ajeltake Road, Ajeltake, Majuro MH 96960, Marshall Islands."
9288851,UNKNOWN,9991001,Unknown,CUBE VENTURES SHIPPING SA,6389478,"Trust Company Complex, Ajeltake Road, Ajeltake, Majuro MH 96960, Marshall Islands.",CUBE VENTURES SHIPPING SA,6389478,"Trust Company Complex, Ajeltake Road, Ajeltake, Majuro MH 96960, Marshall Islands."
9299707,TARABYA LOGISTICS LTD,0108990,"154A/155A, Building N280, Al Taweelah, Abu Dhabi, United Arab Emirates.",SILVER TETRA MARINE CO,6513924,"Trust Company Complex, Ajeltake Road, Ajeltake, Majuro MH 96960, Marshall Islands.",SILVER TETRA MARINE CO,6513924,"Trust Company Complex, Ajeltake Road, Ajeltake, Majuro MH 96960, Marshall Islands."
9353096,PU TUO SHAN SHIPMANAGEMENT CO,0114168,"Room 507, 520, Zhenda Lu, Baoshan Qu, Shanghai, 200000, China.",FU MAN SHIPPING LTD,0091712,"Room 13, 27th Floor, Ho King Commercial Centre, 2-16, Fa Yuen Street, Mong Kok, Kowloon, Hong Kong, China.",FU MAN SHIPPING LTD,0091712,"Room 13, 27th Floor, Ho King Commercial Centre, 2-16, Fa Yuen Street, Mong Kok, Kowloon, Hong Kong, China."
9397456,MNS MARINE INDIA LLP,6449605,"Unit F-01 & F-02, 5th Floor, Plot C-1, Tower NPX, Urbtech NPX, Sector 153, Noida, Dist Gautam Budh Nagar, Uttar Pradesh, 201310, India.",OCEANIC FUEL & PETROLEUM LTD,0057132,"Hermitage Road, St. John's, Nevis St Kitts & Nevis.",OCEANIC FUEL & PETROLEUM LTD,0057132,"Hermitage Road, St. John's, Nevis St Kitts & Nevis."
9261619,METIS CO LTD,6477691,"Room 202, Building 3, 98, Jintong Lu, Wuxiang Gongye Qu, Yinzhou Qu, Ningbo, Zhejiang, 315100, China.",SHIP SMART CO LTD,0135742,"C/O: Metis Co Ltd Room 202, Building 3, 98, Jintong Lu, Wuxiang Gongye Qu, Yinzhou Qu, Ningbo, Zhejiang, 315100, China.",METIS CO LTD,6477691,"Room 202, Building 3, 98, Jintong Lu, Wuxiang Gongye Qu, Yinzhou Qu, Ningbo, Zhejiang, 315100, China."
9237412,SEASKY MARINE CO LTD,6499567,"Room 505, 399, Haiyang Lu, Pudong Xinqu, Shanghai, 201306, China.",SEASKY MARINE CO LTD,6499567,"Room 505, 399, Haiyang Lu, Pudong Xinqu, Shanghai, 201306, China.",SEASKY MARINE CO LTD,6499567,"Room 505, 399, Haiyang Lu, Pudong Xinqu, Shanghai, 201306, China."
9419448,UNKNOWN,9991001,Unknown,HENGTAI SHIPPING LTD,6498321,"Trust Company Complex, Ajeltake Road, Ajeltake, Majuro MH 96960, Marshall Islands.",HENGTAI SHIPPING LTD,6498321,"Trust Company Complex, Ajeltake Road, Ajeltake, Majuro MH 96960, Marshall Islands."
9326720,HUNG PHAT MARITIME TRADING,6198018,"Service Zone 4, Level 6, R2 Tower, The Everrich Building, 968, 3 Thang 2, Ward 15, District 11, Ho Chi Minh City, Vietnam.",HUNG PHAT MARITIME TRADING,6198018,"Service Zone 4, Level 6, R2 Tower, The Everrich Building, 968, 3 Thang 2, Ward 15, District 11, Ho Chi Minh City, Vietnam.",HUNG PHAT MARITIME TRADING,6198018,"Service Zone 4, Level 6, R2 Tower, The Everrich Building, 968, 3 Thang 2, Ward 15, District 11, Ho Chi Minh City, Vietnam."
9208215,AD ASTRA SHIPPING LTD,6501569,"Room A-522, 188, Yesheng Lu, Pilot Free Trade Zone, Pudong Xinqu, Shanghai, 201306, China.",HUNAN SHIPPING INC,0036057,"C/O: Ad Astra Shipping Ltd Room A-522, 188, Yesheng Lu, Pilot Free Trade Zone, Pudong Xinqu, Shanghai, 201306, China.",AD ASTRA SHIPPING LTD,6501569,"Room A-522, 188, Yesheng Lu, Pilot Free Trade Zone, Pudong Xinqu, Shanghai, 201306, China."
9413004,FLEET TANQO PVT LTD,0261023,"Office 2001, 20th Floor, G-Square Business Park, Plot 25/26, Sector 30, Vashi, Navi Mumbai, Maharashtra, 400703, India.",SCALLOP MARINE LTD,6467734,"C/O: Fleet Tanqo Pvt Ltd Office 2001, 20th Floor, G-Square Business Park, Plot 25/26, Sector 30, Vashi, Navi Mumbai, Maharashtra, 400703, India.",FLEET TANQO PVT LTD,0261023,"Office 2001, 20th Floor, G-Square Business Park, Plot 25/26, Sector 30, Vashi, Navi Mumbai, Maharashtra, 400703, India."
9334789,COUGAR NAUTIC INC,6355581,"Oficina 16L, piso 16, Panama Design Center PDC, Calle 56 Este, Panama City, Panama.",HORIZZON LTD,0010449,"80, Broad Street, Monrovia, Liberia.",HORIZZON LTD,0010449,"80, Broad Street, Monrovia, Liberia."
9197844,GABBARO SHIP SERVICES PVT LTD,6221903,"Office 512, B Wing, 5th Floor, Samartha Aishwarya, KL Walawalkar Road, Andheri (W), Mumbai, 400053, India.",ENGEN MANAGEMENT NV,6207811,"Postbus 149, Gravenberchstraat 33, Paramaribo, Suriname.",ENGEN MANAGEMENT NV,6207811,"Postbus 149, Gravenberchstraat 33, Paramaribo, Suriname."
9249087,UNKNOWN,9991001,Unknown,HS GLORY LTD,6357985,"80, Broad Street, Monrovia, Liberia.",HS GLORY LTD,6357985,"80, Broad Street, Monrovia, Liberia."
9319686,YA LONG WAN SHIPMANAGEMENT,0231024,"Room 2203, 1200, Luoshan Lu, Pudong Xinqu, Shanghai, 200000, China.",BERYL MARINE INC,6428741,"C/O: Ya Long Wan Shipmanagement Co Ltd Room 2203, 1200, Luoshan Lu, Pudong Xinqu, Shanghai, 200000, China.",YA LONG WAN SHIPMANAGEMENT,0231024,"Room 2203, 1200, Luoshan Lu, Pudong Xinqu, Shanghai, 200000, China."
9312872,SUPERSHIP MANAGEMENT CO LTD,6352631,"10th Floor, New Hennessy Tower, 263, Hennessy Road, Wan Chai, Hong Kong, China.",HUIHAI HONG KONG SHIPPING CO,6360631,"Room 4, 16th Floor, Ho King Commercial Centre, 3,2-16, Fa Yuen Street, Mong Kok, Kowloon, Hong Kong, China.",HUIHAI HONG KONG SHIPPING CO,6360631,"Room 4, 16th Floor, Ho King Commercial Centre, 3,2-16, Fa Yuen Street, Mong Kok, Kowloon, Hong Kong, China."
9346732,SUPERSHIP MANAGEMENT CO LTD,6352631,"10th Floor, New Hennessy Tower, 263, Hennessy Road, Wan Chai, Hong Kong, China.",HONG KONG HANYUAN SHIPPING CO,6340845,"Room 7022, Block D, 7th Floor, Tak Wing Industrial Building, 3, Tsun Wen Road, Tuen Mun, New Territories, Hong Kong, China.",HONG KONG HANYUAN SHIPPING CO,6340845,"Room 7022, Block D, 7th Floor, Tak Wing Industrial Building, 3, Tsun Wen Road, Tuen Mun, New Territories, Hong Kong, China."
9290309,BIRCH HONG KONG CO LTD,0124751,"D8, 336, Xinanhe Lu, Zhifu Qu, Yantai, Shandong, 264008, China.",SANDA GODA LTD,0116646,"Unit D3, 11th Floor, Luk Hop Industrial Building, 8, Luk Hop Street, San Po Kong, Hong Kong, China.",SANDA GODA LTD,0116646,"Unit D3, 11th Floor, Luk Hop Industrial Building, 8, Luk Hop Street, San Po Kong, Hong Kong, China."
9322968,ORCHID SHIPMANAGEMENT LLC-FZ,0013015,"6th Floor, Meydan Grandstand, Al Meydan Road, Nad Al Sheba, Dubai, United Arab Emirates.",RHONA MARINE INC,0068640,"C/O: Thunder Shipmanagement LLC-FZ 6th Floor, Meydan Grandstand, Al Meydan Road, Nad Al Sheba, Dubai, United Arab Emirates.",ORCHID SHIPMANAGEMENT LLC-FZ,0013015,"6th Floor, Meydan Grandstand, Al Meydan Road, Nad Al Sheba, Dubai, United Arab Emirates."
8892007,MIDDLE VOLGA SHIPPING CO,5658026,"ul Fersmana 5A, Moscow, 117312, Russia.",ARTNER MANAGEMENT CORP,5460076,"C/O: Middle Volga Shipping Co ul Fersmana 5A, Moscow, 117312, Russia.",MIDDLE VOLGA SHIPPING CO,5658026,"ul Fersmana 5A, Moscow, 117312, Russia."
9056571,UNKNOWN,9991001,Unknown,IE BELOKUR OLGA FEDOROVNA,0353059,"Vladivostok, Primorskiy kray, Russia.",IE BELOKUR OLGA FEDOROVNA,0353059,"Vladivostok, Primorskiy kray, Russia."
9171448,SHUNXIANG SHIP MANAGEMENT LTD,6162010,"Room 1502, Ship Research Building, 600, Minsheng Lu, Pudong Xinqu, Shanghai, China.",EMBRACE QUE LTD,0096700,"Room 104, 19th Floor, W Luxe, 5, On Yiu Street, Shek Mun, Sha Tin, New Territories, Hong Kong, China.",SHUNXIANG SHIP MANAGEMENT LTD,6162010,"Room 1502, Ship Research Building, 600, Minsheng Lu, Pudong Xinqu, Shanghai, China."
9308443,UNKNOWN,9991001,Unknown,PISHA INTERNATIONAL SHIPPING,6349407,"Mazaya Plaza, Zuhal Caddesi 46, Cevizli Mah, Maltepe, 34846, Istanbul, Turkey.",PISHA INTERNATIONAL SHIPPING,6349407,"Mazaya Plaza, Zuhal Caddesi 46, Cevizli Mah, Maltepe, 34846, Istanbul, Turkey."
9314894,VEMBANAD SHIPPING PVT LTD,0170804,"Unit 16D, Ground Floor, Krishnamachari Street, Nemilichery, Kanchipuram, 600044, India.",HONG HU SHIPPING LTD,0093492,"Room 13, 27th Floor, Ho King Commercial Centre, 2-16, Fa Yuen Street, Mong Kok, Kowloon, Hong Kong, China.",HONG HU SHIPPING LTD,0093492,"Room 13, 27th Floor, Ho King Commercial Centre, 2-16, Fa Yuen Street, Mong Kok, Kowloon, Hong Kong, China."
9247429,STELLAR SHIP SOLUTIONS LLC,0055533,"Apartment 18, Building 6, Estate 76, AZ 5006, Sumqayit Azerbaijan.",HIPPOCAMP VENTURE LTD,0052936,"Suite 10, 3rd Floor, La Ciotat, Mont Fleuri, Mahe Island Seychelles.",HIPPOCAMP VENTURE LTD,0052936,"Suite 10, 3rd Floor, La Ciotat, Mont Fleuri, Mahe Island Seychelles."
9360415,UNKNOWN,9991001,Unknown,TIGWA SHIPPING INC,6474855,"3rd Floor, Standard Chartered Tower, Bank Street, Cybercity, Ebene, Mauritius.",TIGWA SHIPPING INC,6474855,"3rd Floor, Standard Chartered Tower, Bank Street, Cybercity, Ebene, Mauritius."
9306809,HATHAWAY CO LTD,6476865,"100, Yanhe Zhonglu, Dinghai Qu, Zhoushan, Zhejiang, 316100, China.",THOUSAND SUNNY LTD,6186298,"C/O: Hathaway Co Ltd 100, Yanhe Zhonglu, Dinghai Qu, Zhoushan, Zhejiang, 316100, China.",HATHAWAY CO LTD,6476865,"100, Yanhe Zhonglu, Dinghai Qu, Zhoushan, Zhejiang, 316100, China."
9250543,TRITON INC,0115387,"12th Floor, The Onyx Tower 1, 1207, Sheikh Zayed Road, The Greens, Dubai, United Arab Emirates.",TRANS SEE INC,6202532,"Trust Company Complex, Ajeltake Road, Ajeltake, Majuro MH 96960, Marshall Islands.",TRANS SEE INC,6202532,"Trust Company Complex, Ajeltake Road, Ajeltake, Majuro MH 96960, Marshall Islands."
9183271,UNKNOWN,9991001,Unknown,SHORE SHIPPING INC,6404317,"C/O: GR Shipping Pte Ltd 09-02A, The Adelphi, 1, Coleman Street, Singapore 179803",SHORE SHIPPING INC,6404317,"C/O: GR Shipping Pte Ltd 09-02A, The Adelphi, 1, Coleman Street, Singapore 179803"
9248796,EMT GEMI ISLETMECILIGI AS,0115002,"Yesilkoy Halkali Caddesi 93/2, Senlikkoy Mah, Bakirkoy, 34153, Istanbul, Turkey.",IRON MARITIME SERVICES & TRDG,0245536,"C/O: EMT Gemi Isletmeciligi AS Yesilkoy Halkali Caddesi 93/2, Senlikkoy Mah, Bakirkoy, 34153, Istanbul, Turkey.",EMT GEMI ISLETMECILIGI AS,0115002,"Yesilkoy Halkali Caddesi 93/2, Senlikkoy Mah, Bakirkoy, 34153, Istanbul, Turkey."
9435375,PERSPEKTIVA JSC,0071723,"pom 5p, proyezd Anadyrskiy 21, Moscow, 129327, Russia.",PERSPEKTIVA JSC,0071723,"pom 5p, proyezd Anadyrskiy 21, Moscow, 129327, Russia.",PERSPEKTIVA JSC,0071723,"pom 5p, proyezd Anadyrskiy 21, Moscow, 129327, Russia."
9102277,UNKNOWN,9991001,Unknown,ITAUGUA SERVICES INC,6487480,"80, Broad Street, Monrovia, Liberia.",ITAUGUA SERVICES INC,6487480,"80, Broad Street, Monrovia, Liberia."
9337133,SAO VIET PETROL TRANSPORTATION,6169710,"3rd Floor, Viet Tower Building, 1, Thai Ha, Trung Liet Ward, Dong Da District, Hanoi City, Vietnam.",SAO VIET PETROL TRANSPORTATION,6169710,"3rd Floor, Viet Tower Building, 1, Thai Ha, Trung Liet Ward, Dong Da District, Hanoi City, Vietnam.",SAO VIET PETROL TRANSPORTATION,6169710,"3rd Floor, Viet Tower Building, 1, Thai Ha, Trung Liet Ward, Dong Da District, Hanoi City, Vietnam."
9249312,AEGIS VOYAGE SHIPMANAGEMENT,6465857,"Apartment 6, House 34, Block 18, Heydar Aliyev Avenue AZ 5000, Sumqayit Azerbaijan.",LONGREN NAVIGATION LTD,6507568,"Suite 10, 3rd Floor, La Ciotat, Mont Fleuri, Mahe Island Seychelles.",LONGREN NAVIGATION LTD,6507568,"Suite 10, 3rd Floor, La Ciotat, Mont Fleuri, Mahe Island Seychelles."
9249324,MAGICIAN CAPITAL LTD,6469007,"Room 1006, 28, Xinjinqiao Lu, Pudong Xinqu, Shanghai, 200136, China.",GEMINI MARINE LTD-MAI,6482373,"Trust Company Complex, Ajeltake Road, Ajeltake, Majuro MH 96960, Marshall Islands.",GEMINI MARINE LTD-MAI,6482373,"Trust Company Complex, Ajeltake Road, Ajeltake, Majuro MH 96960, Marshall Islands."
9313498,PACIFIC STAR MANAGEMENT LTD,6399562,"Room 207, Block 12, Ocean Science City, 188, Tianluozhi Lu, Dinghai Qu, Zhoushan, Zhejiang, 316000, China.",EVERGREEN CO LTD,0260816,"C/O: Pacific Star Management Ltd Room 207, Block 12, Ocean Science City, 188, Tianluozhi Lu, Dinghai Qu, Zhoushan, Zhejiang, 316000, China.",PACIFIC STAR MANAGEMENT LTD,6399562,"Room 207, Block 12, Ocean Science City, 188, Tianluozhi Lu, Dinghai Qu, Zhoushan, Zhejiang, 316000, China."
9354301,NOVA SHIPMANAGEMENT LLC-FZ,0055652,"6th Floor, Meydan Grandstand, Al Meydan Road, Nad Al Sheba, Dubai, United Arab Emirates.",IVA SHIPPING INC,0133485,"C/O: Sterling Ship Management LLC-FZ 6th Floor, Meydan Grandstand, Al Meydan Road, Nad Al Sheba, Dubai, United Arab Emirates.",NOVA SHIPMANAGEMENT LLC-FZ,0055652,"6th Floor, Meydan Grandstand, Al Meydan Road, Nad Al Sheba, Dubai, United Arab Emirates."
9304825,SAGARVANI SHIPPING PVT LTD,0196647,"Desk 306, Iqrah Enclave, Silanthi Kuttai, 40/44B, Kolathur Main Road, Tiruvallur, Ambattur, Chennai, 600099, India.",NAAG MARITIME INC,0260229,"Suite 310, Premier Building, Albert Street, Victoria, Mahe Island, Seychelles.",MEEGAMAN MARITIME PVT LTD,6437651,"Unit 2, 1st Floor, Wing B, Thirumurthy Street, Thyagaraya Nagar, Chennai, 600017, India."
9253909,GAMA LINK TECH SERVICES CO,6394120,"Unit A, 2nd Floor, Plot 112, Udyog Vihar, Gurugram, Haryana, 122016, India.",JAMES NAVIGATION SA,6373923,"C/O: Gama Link Tech Services Co Unit A, 2nd Floor, Plot 112, Udyog Vihar, Gurugram, Haryana, 122016, India.",GAMA LINK TECH SERVICES CO,6394120,"Unit A, 2nd Floor, Plot 112, Udyog Vihar, Gurugram, Haryana, 122016, India."
9299886,EAST GEMI ISLETMECILIGI AS,0026325,"Ic Kapi 111, A Blok, Hukukcular Towers, Mustafa Kemal Caddesi 66A, Cevizli Mah, Kartal, 34865, Istanbul, Turkey.",JASPER MARITIME SERVICES TRDG,0253951,"C/O: EMT Gemi Isletmeciligi AS Yesilkoy Halkali Caddesi 93/2, Senlikkoy Mah, Bakirkoy, 34153, Istanbul, Turkey.",EMT GEMI ISLETMECILIGI AS,0115002,"Yesilkoy Halkali Caddesi 93/2, Senlikkoy Mah, Bakirkoy, 34153, Istanbul, Turkey."
9410387,UNKNOWN,9991001,Unknown,TRIO LTD,6461868,"Trust Company Complex, Ajeltake Road, Ajeltake, Majuro MH 96960, Marshall Islands.",TRIO LTD,6461868,"Trust Company Complex, Ajeltake Road, Ajeltake, Majuro MH 96960, Marshall Islands."
9419450,GAO YOU HU SHIPMANAGEMENT CO,0190679,"Room 207, Building A, 882-1, Tongan Lu, Laoshan Qu, Qingdao, Shandong, 266000, China.",MALUGA SHIPPING LTD,0138659,"3rd Floor, Bank Street, Cybercity, Ebene, Mauritius.",MALUGA SHIPPING LTD,0138659,"3rd Floor, Bank Street, Cybercity, Ebene, Mauritius."
9402732,TECH MARINE SERVICES,6474166,"Shop 501, Shanti Legacy, Mira Bhayandar Road, Mira Road (E), Thane, Maharashtra, 401107, India.",DAVAO SHIPPING INC,6474798,"3rd Floor, Standard Chartered Tower, Bank Street, Cybercity, Ebene, Mauritius.",DAVAO SHIPPING INC,6474798,"3rd Floor, Standard Chartered Tower, Bank Street, Cybercity, Ebene, Mauritius."
9281009,PERTMARINE SHIPPING CO LTD,6503534,"Room 101, 143-3, Zhuzhou Lu, Laoshan Qu, Qingdao, Shandong, 266000, China.",JIHANG SHIPPING LTD,0306021,"Trust Company Complex, Ajeltake Road, Ajeltake, Majuro MH 96960, Marshall Islands.",JIHANG SHIPPING LTD,0306021,"Trust Company Complex, Ajeltake Road, Ajeltake, Majuro MH 96960, Marshall Islands."
9290335,TONG TIAN HE SHIPMANAGEMENT,0231483,"Room 1003, 808, Hongqiao Lu, Xuhui Qu, Shanghai, 200000, China.",NAAG MARITIME INC,0260229,"Suite 310, Premier Building, Albert Street, Victoria, Mahe Island, Seychelles.",NAAG MARITIME INC,0260229,"Suite 310, Premier Building, Albert Street, Victoria, Mahe Island, Seychelles."
9353113,DONG TING HU SHIPMANAGEMENT CO,6514180,"Unit 2-2-201, 35, Jiangxi Lu, Shinan Qu, Qingdao, Shandong, 266000, China.",KYRAN MARITIME INC,0389591,"Unit F1-201-OaaS-04, F1 Block, Al Jurf Building, Ajman Free Zone, Ajman, United Arab Emirates.",DONG TING HU SHIPMANAGEMENT CO,6514180,"Unit 2-2-201, 35, Jiangxi Lu, Shinan Qu, Qingdao, Shandong, 266000, China."
9405057,UNKNOWN,9991001,Unknown,JUNTONG SHIPPING LTD,0298311,"Trust Company Complex, Ajeltake Road, Ajeltake, Majuro MH 96960, Marshall Islands.",JUNTONG SHIPPING LTD,0298311,"Trust Company Complex, Ajeltake Road, Ajeltake, Majuro MH 96960, Marshall Islands."
9397535,UNKNOWN,9991001,Unknown,NERIO MARINE INC,0097291,"C/O: Thunder Shipmanagement LLC-FZ 6th Floor, Meydan Grandstand, Al Meydan Road, Nad Al Sheba, Dubai, United Arab Emirates.",ORCHID SHIPMANAGEMENT LLC-FZ,0013015,"6th Floor, Meydan Grandstand, Al Meydan Road, Nad Al Sheba, Dubai, United Arab Emirates."
9599341,PRIME SHIPPING LLC-RUS,4105625,"3rd Floor, ul M Gorkogo 78B, Samara, 443099, Russia.",RPTD SOLD RUSSIA,9992075,Unknown,RPTD SOLD RUSSIA,9992075,Unknown
9236004,ALAFIA TRADING LTD,0267155,"Room 811, 329, Hengfeng Lu, Jing'an Qu, Shanghai, China.",ALAFIA TRADING LTD,0267155,"Room 811, 329, Hengfeng Lu, Jing'an Qu, Shanghai, China.",ALAFIA TRADING LTD,0267155,"Room 811, 329, Hengfeng Lu, Jing'an Qu, Shanghai, China."
9585924,TRINITY SHIPPING LLC-RUS,4239547,"Office 4N, Liter A, House 2, ul 3-ya Liniya 1-y Poloviny St Petersburg, 197341, Russia.",TRINITY SHIPPING LLC-RUS,4239547,"Office 4N, Liter A, House 2, ul 3-ya Liniya 1-y Poloviny St Petersburg, 197341, Russia.",TRINITY SHIPPING LLC-RUS,4239547,"Office 4N, Liter A, House 2, ul 3-ya Liniya 1-y Poloviny St Petersburg, 197341, Russia."
9265873,CASPIRON STARHELM LLC,0192471,"Apartment 28, House 5, Estate 76, Sumqayit Azerbaijan.",LIBRA FRAME LTD,0312571,"Suite 10, 3rd Floor, La Ciotat, Mont Fleuri, Mahe Island Seychelles.",LIBRA FRAME LTD,0312571,"Suite 10, 3rd Floor, La Ciotat, Mont Fleuri, Mahe Island Seychelles."
9301392,SOUTH FLEET LTD,6450877,"Kab 3, Pom 7-H, Liter A, ul Vasi Alekseyeva 14, St Petersburg, 198188, Russia.",GLIMMER SHIPPING HK LTD,6361161,"C/O: South Fleet Ltd (OOO 'Yuzhnyy Flot') Kab 3, Pom 7-H, Liter A, ul Vasi Alekseyeva 14, St Petersburg, 198188, Russia.",SOUTH FLEET LTD,6450877,"Kab 3, Pom 7-H, Liter A, ul Vasi Alekseyeva 14, St Petersburg, 198188, Russia."
8727941,DONNEFTETRANS LTD,6021144,"Ofis 417, Dom 67V/2B, ul Zakrutkina Rostov-na-Donu, 344019, Russia.",MORFLOT LLC,5947073,"Office 1256, ul Bolshaya Sadovaya 188A, Rostov-na-Donu, 344022, Russia.",DONNEFTETRANS LTD,6021144,"Ofis 417, Dom 67V/2B, ul Zakrutkina Rostov-na-Donu, 344019, Russia."
9810513,ASCO SHIPMANAGEMENT AFEZCO,6417922,"Liman kucasi Alat Azad Iqtisadi Zona 1, AZ 1003, Baku, Azerbaijan.",SA KARABAKH SHIPHOLDINGS,6415855,"Liman kucasi Alat Azad Iqtisadi Zona 1, Baku, Azerbaijan.",SA KARABAKH SHIPHOLDINGS,6415855,"Liman kucasi Alat Azad Iqtisadi Zona 1, Baku, Azerbaijan."
9621558,CONARO SHIPPING JSC,0074609,"pom 1, prospekt Budonnovskiy 2A/23B, Rostov-na-Donu, 344002, Russia.",NAFTA-INVEST LLC,6149907,"Ofis 408, ul Karla Marksa 71, Kazan, Tatarstan, 420015, Russia.",NAFTA-INVEST LLC,6149907,"Ofis 408, ul Karla Marksa 71, Kazan, Tatarstan, 420015, Russia."
9306782,INVEST FLEET LTD,6460140,"Kab 18, Pom 7-H, Liter A, ul Vasi Alekseyeva 14, St Petersburg, 198188, Russia.",GALLION NAVIGATION INC,4112088,"C/O: Invest Fleet Ltd (OOO 'Invest Flot') Kab 18, Pom 7-H, Liter A, ul Vasi Alekseyeva 14, St Petersburg, 198188, Russia.",INVEST FLEET LTD,6460140,"Kab 18, Pom 7-H, Liter A, ul Vasi Alekseyeva 14, St Petersburg, 198188, Russia."
9327413,UNKNOWN,9991001,Unknown,ARISTO TANKERS LTD,6387180,"6th Floor, Ken Lee Building, 20, Edith Cavell Street, Port Louis, Mauritius.",ARISTO TANKERS LTD,6387180,"6th Floor, Ken Lee Building, 20, Edith Cavell Street, Port Louis, Mauritius."
9288710,TITAN MARINE MANAGEMENT' LLC,0014659,"Apartment 17, Building 30, Estate 18, AZ 5000, Sumqayit Azerbaijan.",MORVEX VENTURE LTD,0192560,"Suite 10, 3rd Floor, La Ciotat, Mont Fleuri, Mahe Island Seychelles.",MORVEX VENTURE LTD,0192560,"Suite 10, 3rd Floor, La Ciotat, Mont Fleuri, Mahe Island Seychelles."
9317949,WU TAI SHAN SHIPMANAGEMENT CO,0065322,"Room 2106, 588, Pudong Nanlu, Pudong Xinqu, Shanghai, 200000, China.",VAVAU MARITIME LTD,0106463,"Victoria House, 306, Victoria, Mahe Island, Seychelles.",VAVAU MARITIME LTD,0106463,"Victoria House, 306, Victoria, Mahe Island, Seychelles."
9260275,NAUTICAL UNITY SHIPMANAGEMENT,6465874,"Apartment 6, House 3/6, Block 15, Baku Street AZ 5000, Sumqayit Azerbaijan.",OMNI TORRENT LTD,6510893,"Suite 10, 3rd Floor, La Ciotat, Mont Fleuri, Mahe Island Seychelles.",OMNI TORRENT LTD,6510893,"Suite 10, 3rd Floor, La Ciotat, Mont Fleuri, Mahe Island Seychelles."
9178068,OZARKA SHIPPING - FZCO,6491076,"Unit 301 A, A Block, Opus Tower, Business Bay, Dubai, United Arab Emirates.",SORITIES LTD,6440249,"C/O: Ozarka Shipping - FZCO Unit 301 A, A Block, Opus Tower, Business Bay, Dubai, United Arab Emirates.",OZARKA SHIPPING - FZCO,6491076,"Unit 301 A, A Block, Opus Tower, Business Bay, Dubai, United Arab Emirates."
9323326,UNKNOWN,9991001,Unknown,CENTAURI SERVICES LLC,0110029,"C/O: Lumen Ship Management - FZCO Unit 405, 4th Floor, Jumeirah Business Center 5, Jumeirah Lakes Towers, Dubai, United Arab Emirates.",CENTAURI SERVICES LLC,0110029,"C/O: Lumen Ship Management - FZCO Unit 405, 4th Floor, Jumeirah Business Center 5, Jumeirah Lakes Towers, Dubai, United Arab Emirates."
9292199,PERGAMON DENIZCILIK ISLETMELER,0286693,"Ic Kapi 2, Barbaros Hayrettin Caddesi, Postane Mah, 38A, Tuzla, Istanbul, Turkey.",SEA GRACE SHIPPING LTD-SKN,0370043,"Building 1, Nelson Spring Business Complex, Nelson Spring, Nevis St Kitts & Nevis.",PERGAMON DENIZCILIK ISLETMELER,0286693,"Ic Kapi 2, Barbaros Hayrettin Caddesi, Postane Mah, 38A, Tuzla, Istanbul, Turkey."
9258002,INVEST FLEET LTD,6460140,"Kab 18, Pom 7-H, Liter A, ul Vasi Alekseyeva 14, St Petersburg, 198188, Russia.",KAZAN SHIPPING INC,1142781,"C/O: Invest Fleet Ltd (OOO 'Invest Flot') Kab 18, Pom 7-H, Liter A, ul Vasi Alekseyeva 14, St Petersburg, 198188, Russia.",INVEST FLEET LTD,6460140,"Kab 18, Pom 7-H, Liter A, ul Vasi Alekseyeva 14, St Petersburg, 198188, Russia."
9331141,TITAN MARINE MANAGEMENT' LLC,0014659,"Apartment 17, Building 30, Estate 18, AZ 5000, Sumqayit Azerbaijan.",STELLA BRITE SHIPPING LTD,0031728,"C/O: 'Titan Marine Management' LLC Apartment 17, Building 30, Estate 18, AZ 5000, Sumqayit Azerbaijan.",TITAN MARINE MANAGEMENT' LLC,0014659,"Apartment 17, Building 30, Estate 18, AZ 5000, Sumqayit Azerbaijan."
9312884,INVEST FLEET LTD,6460140,"Kab 18, Pom 7-H, Liter A, ul Vasi Alekseyeva 14, St Petersburg, 198188, Russia.",SIGMA NAVIGATION CORP,5305542,"C/O: Invest Fleet Ltd (OOO 'Invest Flot') Kab 18, Pom 7-H, Liter A, ul Vasi Alekseyeva 14, St Petersburg, 198188, Russia.",INVEST FLEET LTD,6460140,"Kab 18, Pom 7-H, Liter A, ul Vasi Alekseyeva 14, St Petersburg, 198188, Russia."
9293997,LUMEN SHIP MANAGEMENT - FZCO,0019646,"Unit 405, 4th Floor, Jumeirah Business Center 5, Jumeirah Lakes Towers, Dubai, United Arab Emirates.",CENTAURI SERVICES LLC,0110029,"C/O: Lumen Ship Management - FZCO Unit 405, 4th Floor, Jumeirah Business Center 5, Jumeirah Lakes Towers, Dubai, United Arab Emirates.",LUMEN SHIP MANAGEMENT - FZCO,0019646,"Unit 405, 4th Floor, Jumeirah Business Center 5, Jumeirah Lakes Towers, Dubai, United Arab Emirates."
9867621,ASCO SHIPMANAGEMENT AFEZCO,6417922,"Liman kucasi Alat Azad Iqtisadi Zona 1, AZ 1003, Baku, Azerbaijan.",SA LEADER SHIPHOLDINGS AFEZCO,0041375,"Liman kucasi Alat Azad Iqtisadi Zona Baku, Azerbaijan.",SA MARITIME AFEZCO,6406684,"Liman kucasi Alat Azad Iqtisadi Zona 1, Baku, Azerbaijan."
9346720,SHE RAY SHIPS CO LTD,0009605,"Room 502b, Unit 2, Building 140, 8, Minjiang Silu, Shinan Qu, Qingdao, Shandong, 266000, China.",EASTERN SHIPPING INC,6411424,"Suite 212, 2nd Floor, Block A, La Ciotat, Mont Fleuri, Mahe Island Seychelles.",EASTERN SHIPPING INC,6411424,"Suite 212, 2nd Floor, Block A, La Ciotat, Mont Fleuri, Mahe Island Seychelles."
9234642,VESTA SHIPMANAGEMENT LTD,6358949,"Building A4, Al Hamra Industrial Zone-FZ, Ras al Khaimah, United Arab Emirates.",DAHLIA INTERNATIONAL CO,6504360,"C/O: Vesta Shipmanagement Ltd Building A4, Al Hamra Industrial Zone-FZ, Ras al Khaimah, United Arab Emirates.",DAHLIA INTERNATIONAL CO,6504360,"C/O: Vesta Shipmanagement Ltd Building A4, Al Hamra Industrial Zone-FZ, Ras al Khaimah, United Arab Emirates."
9199127,UNKNOWN,9991001,Unknown,LUCKY UNION MARINE LTD,0115617,"C/O: Luseia Marine Services Co Ltd Room 6, 13A Floor, South Tower, World Finance Centre, Harbour City, 17, Canton Road, Tsim Sha Tsui, Kowloon, Hong Kong, China.",LUCKY UNION MARINE LTD,0115617,"C/O: Luseia Marine Services Co Ltd Room 6, 13A Floor, South Tower, World Finance Centre, Harbour City, 17, Canton Road, Tsim Sha Tsui, Kowloon, Hong Kong, China."
9341093,INVEST FLEET LTD,6460140,"Kab 18, Pom 7-H, Liter A, ul Vasi Alekseyeva 14, St Petersburg, 198188, Russia.",WATERSCAPE CARRIERS INC,4110665,"C/O: Invest Fleet Ltd (OOO 'Invest Flot') Kab 18, Pom 7-H, Liter A, ul Vasi Alekseyeva 14, St Petersburg, 198188, Russia.",INVEST FLEET LTD,6460140,"Kab 18, Pom 7-H, Liter A, ul Vasi Alekseyeva 14, St Petersburg, 198188, Russia."
9271585,FIRST SKYLINES LLC,0315205,"Office 8-N, Liter A, pereulok Pirogova 17, St Petersburg, 190068, Russia.",YO SHUI MARINE LTD,0078805,"Room 13, 27th Floor, Ho King Commercial Centre, 2-16, Fa Yuen Street, Mong Kok, Kowloon, Hong Kong, China.",YO SHUI MARINE LTD,0078805,"Room 13, 27th Floor, Ho King Commercial Centre, 2-16, Fa Yuen Street, Mong Kok, Kowloon, Hong Kong, China."
9256975,UNKNOWN,9991001,Unknown,HONG KONG HANGSHUN SHIPPING,0086990,"Flat 06, 17th Floor, Wellborne Commercial Centre, 8, Java Road, North Point, Hong Kong, China.",HONG KONG HANGSHUN SHIPPING,0086990,"Flat 06, 17th Floor, Wellborne Commercial Centre, 8, Java Road, North Point, Hong Kong, China."
9290373,PERGAMON DENIZCILIK ISLETMELER,0286693,"Ic Kapi 2, Barbaros Hayrettin Caddesi, Postane Mah, 38A, Tuzla, Istanbul, Turkey.",SEA FORTUNE SHIPPING LTD,0370061,"C/O: Pergamon Denizcilik Isletmeleri AS Ic Kapi 2, Barbaros Hayrettin Caddesi, Postane Mah, 38A, Tuzla, Istanbul, Turkey.",PERGAMON DENIZCILIK ISLETMELER,0286693,"Ic Kapi 2, Barbaros Hayrettin Caddesi, Postane Mah, 38A, Tuzla, Istanbul, Turkey."
9299161,KORD-BUNKER CO LTD,5793484,"ul Polyarnyye Zori 21/3, Murmansk, 183025, Russia.",KORD CO LTD,5705072,"ul Tralovaya 17, Murmansk, 183001, Russia.",KORD-BUNKER CO LTD,5793484,"ul Polyarnyye Zori 21/3, Murmansk, 183025, Russia."
9312896,INVEST FLEET LTD,6460140,"Kab 18, Pom 7-H, Liter A, ul Vasi Alekseyeva 14, St Petersburg, 198188, Russia.",NIVA TRANSPORT SA,4124134,"C/O: Invest Fleet Ltd (OOO 'Invest Flot') Kab 18, Pom 7-H, Liter A, ul Vasi Alekseyeva 14, St Petersburg, 198188, Russia.",INVEST FLEET LTD,6460140,"Kab 18, Pom 7-H, Liter A, ul Vasi Alekseyeva 14, St Petersburg, 198188, Russia."
9412995,UNKNOWN,9991001,Unknown,HEMSWORTH LOGISTICS FZE,6504974,"BC 1300969, B1 Building, Ajman Free Zone, Ajman, United Arab Emirates.",HEMSWORTH LOGISTICS FZE,6504974,"BC 1300969, B1 Building, Ajman Free Zone, Ajman, United Arab Emirates."
9270529,INVEST FLEET LTD,6460140,"Kab 18, Pom 7-H, Liter A, ul Vasi Alekseyeva 14, St Petersburg, 198188, Russia.",KRYMSK SHIPPING INC,5057207,"C/O: Invest Fleet Ltd (OOO 'Invest Flot') Kab 18, Pom 7-H, Liter A, ul Vasi Alekseyeva 14, St Petersburg, 198188, Russia.",INVEST FLEET LTD,6460140,"Kab 18, Pom 7-H, Liter A, ul Vasi Alekseyeva 14, St Petersburg, 198188, Russia."
9749154,MAZK MANAGEMENT LLC,6511857,"ul Ivana Babushkina 8, Moscow, 117292, Russia.",MAZK MANAGEMENT LLC,6511857,"ul Ivana Babushkina 8, Moscow, 117292, Russia.",MAZK MANAGEMENT LLC,6511857,"ul Ivana Babushkina 8, Moscow, 117292, Russia."
9308833,HARBOR HARMONY SHIPMANAGEMENT,6465830,"Apartment 29, House 42, Block 15, Yanvar 20, AZ 5000, Sumqayit Azerbaijan.",SOLSTICE CORP,6487136,"Suite 10, 3rd Floor, La Ciotat, Mont Fleuri, Mahe Island Seychelles.",SOLSTICE CORP,6487136,"Suite 10, 3rd Floor, La Ciotat, Mont Fleuri, Mahe Island Seychelles."
9189146,ATMA SHIPPING FZE,0024261,"Office E2-123F-52, PI-ELOB, Hamriyah Free Zone, Sharjah, United Arab Emirates.",KYLO SHIPPING INC,6502638,"Trust Company Complex, Ajeltake Road, Ajeltake, Majuro MH 96960, Marshall Islands.",KYLO SHIPPING INC,6502638,"Trust Company Complex, Ajeltake Road, Ajeltake, Majuro MH 96960, Marshall Islands."
9749130,UNKNOWN,9991001,Unknown,HAI OCEAN SHIPPING CO LTD,5927787,"38, Pjazza Sir Luigi Preziosi, Floriana, FRN 1154, Malta.",HAI OCEAN SHIPPING CO LTD,5927787,"38, Pjazza Sir Luigi Preziosi, Floriana, FRN 1154, Malta."
9339313,INVEST FLEET LTD,6460140,"Kab 18, Pom 7-H, Liter A, ul Vasi Alekseyeva 14, St Petersburg, 198188, Russia.",INVEST FLEET LTD,6460140,"Kab 18, Pom 7-H, Liter A, ul Vasi Alekseyeva 14, St Petersburg, 198188, Russia.",INVEST FLEET LTD,6460140,"Kab 18, Pom 7-H, Liter A, ul Vasi Alekseyeva 14, St Petersburg, 198188, Russia."
9290323,SUPERFLEET DMCC,6435858,"3201, Swiss Tower, Cluster Y, Jumeirah Lakes Towers, Dubai, United Arab Emirates.",MATI SHIPPING SA,0122004,"C/O: Bainbridge DMCC Unit 3O-01-4667, Level 1, Jewellery & Gemplex 3, Dubai Multi Commodities Centre (DMCC), Dubai, United Arab Emirates.",BAINBRIDGE DMCC,0136272,"Unit 3O-01-4667, Level 1, Jewellery & Gemplex 3, Dubai Multi Commodities Centre (DMCC), Dubai, United Arab Emirates."
9341512,AL NASEEM SHIP MANAGEMENT,0083611,"Office 905-98, Inspiro Business Centre, Dubai National Insurance Building, Port Saeed, Dubai, United Arab Emirates.",CONSTELLATION MARITIME SRVS,6394368,"80, Broad Street, Monrovia, Liberia.",CONSTELLATION MARITIME SRVS,6394368,"80, Broad Street, Monrovia, Liberia."
9379698,UNKNOWN,9991001,Unknown,CHANGBAI GLORY SHIPPING LTD,0179533,"Trust Company Complex, Ajeltake Road, Ajeltake, Majuro MH 96960, Marshall Islands.",CHANGBAI GLORY SHIPPING LTD,0179533,"Trust Company Complex, Ajeltake Road, Ajeltake, Majuro MH 96960, Marshall Islands."
9321691,YUN TAI SHAN SHIPMANAGEMENT,0231038,"Room 12-06, 1, Lane 345, Ruijin Nanlu, Huangpu Qu, Shanghai, 200000, China.",BARQ LINE LLC,0304351,"Muscat, Oman.",BARQ LINE LLC,0304351,"Muscat, Oman."
9320843,DOGLAS SHIPMANAGEMENT CO LTD,0101710,"Room 601, Building 3, 195, Xianggang Donglu, Laoshan Qu, Qingdao, Shandong, 266000, China.",YIMM INTERNATIONAL TRADING LTD,0190104,"C/O: Doglas Shipmanagement Co Ltd Room 601, Building 3, 195, Xianggang Donglu, Laoshan Qu, Qingdao, Shandong, 266000, China.",DOGLAS SHIPMANAGEMENT CO LTD,0101710,"Room 601, Building 3, 195, Xianggang Donglu, Laoshan Qu, Qingdao, Shandong, 266000, China."
9277759,UNKNOWN,9991001,Unknown,OPTIMA INC,6305837,"C/O: Marine Max Ship Management (OPC) Pvt Ltd A312, Shiv Chamber, Plot 21, Sector 11, CBD Belapur, Navi Mumbai, Maharashtra, 400614, India.",MARINE MAX SHIP MANAGEMENET,6318458,"A312, Shiv Chamber, Plot 21, Sector 11, CBD Belapur, Navi Mumbai, Maharashtra, 400614, India."
9321706,FIRST SKYLINES LLC,0315205,"Office 8-N, Liter A, pereulok Pirogova 17, St Petersburg, 190068, Russia.",GESSI MARITIME CORP,6466149,"Office 702, 7th Floor, Park Lane Tower, Business Bay, Dubai, United Arab Emirates.",GESSI MARITIME CORP,6466149,"Office 702, 7th Floor, Park Lane Tower, Business Bay, Dubai, United Arab Emirates."
9258521,GREETEE CO LTD,6213466,"Unit 101, Door 3, 5, Huanghe Lu, Bayuquan Qu, Yingkou, Liaoning, 115007, China.",MAISIE LTD,6223754,"C/O: Greetee Co Ltd Unit 101, Door 3, 5, Huanghe Lu, Bayuquan Qu, Yingkou, Liaoning, 115007, China.",GREETEE CO LTD,6213466,"Unit 101, Door 3, 5, Huanghe Lu, Bayuquan Qu, Yingkou, Liaoning, 115007, China."
9259599,UNKNOWN,9991001,Unknown,HS HAI II LTD,6342719,"80, Broad Street, Monrovia, Liberia.",HS HAI II LTD,6342719,"80, Broad Street, Monrovia, Liberia."
9255672,ANCHOR ELITE SHIPMANAGEMENT,6462866,"Apartment 9, House 20/33, M/D 3, Sumqayit Azerbaijan.",MY FALLEN LTD,6469656,"Suite 10, 3rd Floor, La Ciotat, Mont Fleuri, Mahe Island Seychelles.",MY FALLEN LTD,6469656,"Suite 10, 3rd Floor, La Ciotat, Mont Fleuri, Mahe Island Seychelles."
9339337,DREAMER SHIPMANAGEMENT LLC-FZ,0032244,"6th Floor, Meydan Grandstand, Al Meydan Road, Nad Al Sheba, Dubai, United Arab Emirates.",SERPENTINE MARINE SPC,0138693,"C/O: Dreamer Shipmanagement LLC-FZ 6th Floor, Meydan Grandstand, Al Meydan Road, Nad Al Sheba, Dubai, United Arab Emirates.",DREAMER SHIPMANAGEMENT LLC-FZ,0032244,"6th Floor, Meydan Grandstand, Al Meydan Road, Nad Al Sheba, Dubai, United Arab Emirates."
9286657,ATOS REMOTE SOLUTIONS,6457083,"Office 203, Institution of Engineers, Uttarakhand Centre, Saharanpur Road, Near ISBT Flyover, Dehra Dun, Uttar Pradesh, 248002, India.",ONE ALRABIYA SHIPPING LTD,0031643,"C/O: Atos Remote Solutions Office 203, Institution of Engineers, Uttarakhand Centre, Saharanpur Road, Near ISBT Flyover, Dehra Dun, Uttar Pradesh, 248002, India.",ATOS REMOTE SOLUTIONS,6457083,"Office 203, Institution of Engineers, Uttarakhand Centre, Saharanpur Road, Near ISBT Flyover, Dehra Dun, Uttar Pradesh, 248002, India."
9299721,MUNNE CO LTD,6342206,"41, Liaodongwan Dajie, Bayuquan Qu, Yingkou, Liaoning, China.",DEMETER BLE LTD,0075111,"C/O: Munne Co Ltd 41, Liaodongwan Dajie, Bayuquan Qu, Yingkou, Liaoning, China.",MUNNE CO LTD,6342206,"41, Liaodongwan Dajie, Bayuquan Qu, Yingkou, Liaoning, China."
9284594,HUNG PHAT MARITIME TRADING,6198018,"Service Zone 4, Level 6, R2 Tower, The Everrich Building, 968, 3 Thang 2, Ward 15, District 11, Ho Chi Minh City, Vietnam.",HUNG PHAT MARITIME TRADING,6198018,"Service Zone 4, Level 6, R2 Tower, The Everrich Building, 968, 3 Thang 2, Ward 15, District 11, Ho Chi Minh City, Vietnam.",HUNG PHAT MARITIME TRADING,6198018,"Service Zone 4, Level 6, R2 Tower, The Everrich Building, 968, 3 Thang 2, Ward 15, District 11, Ho Chi Minh City, Vietnam."
9385831,NAVIGENIX SHIPMANAGEMENT LLC,6463983,"Apartment 17, House 1, M/D 9, AZ 5000, Sumqayit Azerbaijan.",KEY MARVEL LTD,6498422,"Suite 10, 3rd Floor, La Ciotat, Mont Fleuri, Mahe Island Seychelles.",KEY MARVEL LTD,6498422,"Suite 10, 3rd Floor, La Ciotat, Mont Fleuri, Mahe Island Seychelles."
9339325,DREAMER SHIPMANAGEMENT LLC-FZ,0032244,"6th Floor, Meydan Grandstand, Al Meydan Road, Nad Al Sheba, Dubai, United Arab Emirates.",SERPENTINE MARINE SPC,0138693,"C/O: Dreamer Shipmanagement LLC-FZ 6th Floor, Meydan Grandstand, Al Meydan Road, Nad Al Sheba, Dubai, United Arab Emirates.",DREAMER SHIPMANAGEMENT LLC-FZ,0032244,"6th Floor, Meydan Grandstand, Al Meydan Road, Nad Al Sheba, Dubai, United Arab Emirates."
9203277,UNKNOWN,9991001,Unknown,SEA SERVICES PROVIDERS NV,6347401,"Keizer Straat 40C, Paramaribo, Suriname.",SEA SERVICES PROVIDERS NV,6347401,"Keizer Straat 40C, Paramaribo, Suriname."
9389679,STELLAR SHIP SOLUTIONS LLC,0055533,"Apartment 18, Building 6, Estate 76, AZ 5006, Sumqayit Azerbaijan.",VOYAGE EXPERIENCE CORP,0275791,"Suite 10, 3rd Floor, La Ciotat, Mont Fleuri, Mahe Island Seychelles.",VOYAGE EXPERIENCE CORP,0275791,"Suite 10, 3rd Floor, La Ciotat, Mont Fleuri, Mahe Island Seychelles."
9256066,SOUTH FLEET LTD,6450877,"Kab 3, Pom 7-H, Liter A, ul Vasi Alekseyeva 14, St Petersburg, 198188, Russia.",SOUTH FLEET LTD,6450877,"Kab 3, Pom 7-H, Liter A, ul Vasi Alekseyeva 14, St Petersburg, 198188, Russia.",SOUTH FLEET LTD,6450877,"Kab 3, Pom 7-H, Liter A, ul Vasi Alekseyeva 14, St Petersburg, 198188, Russia."
9297905,BABYLON NAVIGATION DMCC,6204848,"Unit 2502, Preatoni Tower, Cluster L2, Jumeirah Lakes Towers, Dubai, United Arab Emirates.",MARINER MARINE CO,0096832,"C/O: Babylon Navigation DMCC Unit 2502, Preatoni Tower, Cluster L2, Jumeirah Lakes Towers, Dubai, United Arab Emirates.",BABYLON NAVIGATION DMCC,6204848,"Unit 2502, Preatoni Tower, Cluster L2, Jumeirah Lakes Towers, Dubai, United Arab Emirates."
9294331,QILIN SHIPPING LTD,0115532,"Room 1506, Block B, Platinum Square, 5, Wenling Lu, Laoshan Qu, Qingdao, Shandong, 266061, China.",CONFIDENT APEX LTD,0123299,"Room D, 10th Floor, Tower A Billion Centre, 1, Wang Kwong Road, Kowloon Bay, Kowloon, Hong Kong, China.",CONFIDENT APEX LTD,0123299,"Room D, 10th Floor, Tower A Billion Centre, 1, Wang Kwong Road, Kowloon Bay, Kowloon, Hong Kong, China."
9311531,UNKNOWN,9991001,Unknown,VIMAN MARITIME INC,0262521,"Suite 310, Premier Building, Albert Street, Victoria, Mahe Island, Seychelles.",VIMAN MARITIME INC,0262521,"Suite 310, Premier Building, Albert Street, Victoria, Mahe Island, Seychelles."
9408542,ANMEI SHIPS CO LTD,0074419,"Room 101, 23, Keyuanjing Sanlu, Laoshan Qu, Qingdao, Shandong, 266000, China.",LINGHONG SHIPPING LTD,0125114,"Trust Company Complex, Ajeltake Road, Ajeltake, Majuro MH 96960, Marshall Islands.",LINGHONG SHIPPING LTD,0125114,"Trust Company Complex, Ajeltake Road, Ajeltake, Majuro MH 96960, Marshall Islands."
9384069,MO CHOU HU SHIPMANAGEMENT CO,0190135,"Room 501, 195, Xianggang Donglu, Laoshan Qu, Qingdao, Shandong, 266000, China.",KARIO MARITIME INC,0178813,"Room 106 B, Albert Street, Victoria, Mahe Island, Seychelles.",KARIO MARITIME INC,0178813,"Room 106 B, Albert Street, Victoria, Mahe Island, Seychelles."
9314179,UNKNOWN,9991001,Unknown,ENIGMA LOGISTICS FZ-LLC,0287087,"C/O: SIA FMT Shipmanagement Kauguru iela 6, LV-1046, Riga, Latvia.",FMT SHIPMANAGEMENT SIA,6129201,"Kauguru iela 6, LV-1046, Riga, Latvia."
9339301,INVEST FLEET LTD,6460140,"Kab 18, Pom 7-H, Liter A, ul Vasi Alekseyeva 14, St Petersburg, 198188, Russia.",NS LEADER SHIPPING INC,5305560,"C/O: Invest Fleet Ltd (OOO 'Invest Flot') Kab 18, Pom 7-H, Liter A, ul Vasi Alekseyeva 14, St Petersburg, 198188, Russia.",INVEST FLEET LTD,6460140,"Kab 18, Pom 7-H, Liter A, ul Vasi Alekseyeva 14, St Petersburg, 198188, Russia."
9292838,NAUTICAL UNITY SHIPMANAGEMENT,6465874,"Apartment 6, House 3/6, Block 15, Baku Street AZ 5000, Sumqayit Azerbaijan.",ARZU EXPRESS INC,6493466,"Suite 10, 3rd Floor, La Ciotat, Mont Fleuri, Mahe Island Seychelles.",ARZU EXPRESS INC,6493466,"Suite 10, 3rd Floor, La Ciotat, Mont Fleuri, Mahe Island Seychelles."
9256078,SOUTH FLEET LTD,6450877,"Kab 3, Pom 7-H, Liter A, ul Vasi Alekseyeva 14, St Petersburg, 198188, Russia.",ORIENTAL CARRIERS CO,4075280,"C/O: South Fleet Ltd (OOO 'Yuzhnyy Flot') Kab 3, Pom 7-H, Liter A, ul Vasi Alekseyeva 14, St Petersburg, 198188, Russia.",SOUTH FLEET LTD,6450877,"Kab 3, Pom 7-H, Liter A, ul Vasi Alekseyeva 14, St Petersburg, 198188, Russia."
9399480,CYMARE NAVIGATION FZC,6384755,"Office 14, Unit 2102, 21st Floor, Metropolis Tower, Marasi Drive, Dubai, United Arab Emirates.",LLEVANT SHIPPING LTD,0103027,"C/O: Grace Energy Shipping DMCC Cluster X, X6-03, Jumeirah Lakes Towers, Dubai, United Arab Emirates.",GRACE ENERGY SHIPPING DMCC,6496823,"Cluster X, X6-03, Jumeirah Lakes Towers, Dubai, United Arab Emirates."
9388754,FIRST SKYLINES LLC,0315205,"Office 8-N, Liter A, pereulok Pirogova 17, St Petersburg, 190068, Russia.",XINGFU HAI SHIPPING LTD,6413774,"Salamat House, Rue de La Poudriere, Victoria, Mahe Island, Seychelles.",XINGFU HAI SHIPPING LTD,6413774,"Salamat House, Rue de La Poudriere, Victoria, Mahe Island, Seychelles."
9240885,UNKNOWN,9991001,Unknown,LONGEVITY SHIPPING LTD,0241856,"Trust Company Complex, Ajeltake Road, Ajeltake, Majuro MH 96960, Marshall Islands.",LONGEVITY SHIPPING LTD,0241856,"Trust Company Complex, Ajeltake Road, Ajeltake, Majuro MH 96960, Marshall Islands."
9392822,PEACE SHIPMANAGEMENT CO LTD,6204971,"Room 3012, 12th Floor, 19, Qinling Lu, Laoshan Qu, Qingdao, Shandong, 266000, China.",GIFTED PEAK LTD,6406450,"C/O: Peace Shipmanagement Co Ltd Room 3012, 12th Floor, 19, Qinling Lu, Laoshan Qu, Qingdao, Shandong, 266000, China.",PEACE SHIPMANAGEMENT CO LTD,6204971,"Room 3012, 12th Floor, 19, Qinling Lu, Laoshan Qu, Qingdao, Shandong, 266000, China."
9348479,XINGJUN INTERNATIONAL GROUP,6426877,"Room A, 11th Floor, Building 3, International Metropolitan Plaza, 58, Yaoyuan Lu, Pudong Xinqu, Shanghai, China.",XINGJUN INTERNATIONAL GROUP,6426877,"Room A, 11th Floor, Building 3, International Metropolitan Plaza, 58, Yaoyuan Lu, Pudong Xinqu, Shanghai, China.",XINGJUN INTERNATIONAL GROUP,6426877,"Room A, 11th Floor, Building 3, International Metropolitan Plaza, 58, Yaoyuan Lu, Pudong Xinqu, Shanghai, China."
9330599,SEA CHERISHER CO LTD,0127800,"Unit 201, Building 3, 98, Jintong Lu, Wuxiang Gongye Qu, Yinzhou Qu, Ningbo, Zhejiang, 315100, China.",LUMINANCE CO LTD,0064911,"C/O: Sea Cherisher Co Ltd Unit 201, Building 3, 98, Jintong Lu, Wuxiang Gongye Qu, Yinzhou Qu, Ningbo, Zhejiang, 315100, China.",SEA CHERISHER CO LTD,0127800,"Unit 201, Building 3, 98, Jintong Lu, Wuxiang Gongye Qu, Yinzhou Qu, Ningbo, Zhejiang, 315100, China."
9274525,BUILT FOUND SHIPMANAGEMENT CO,0101723,"Room 3101, 6, Shandong Lu, Shinan Qu, Qingdao, Shandong, 266000, China.",CHINA OVERSEAS ENERGY DEVELOP,0191093,"6th Floor, Manulife Place, 348, Kwun Tong Road, Kwun Tong, Kowloon, Hong Kong, China.",CHINA OVERSEAS ENERGY DEVELOP,0191093,"6th Floor, Manulife Place, 348, Kwun Tong Road, Kwun Tong, Kowloon, Hong Kong, China."
9365776,UNKNOWN,9991001,Unknown,SUNNY LAND TRADING LTD,6375624,"2nd Floor, Allied Building Annex, Francis Rachel Street, Victoria, Mahe Island, Seychelles.",SUNNY LAND TRADING LTD,6375624,"2nd Floor, Allied Building Annex, Francis Rachel Street, Victoria, Mahe Island, Seychelles."
9153525,PRO OCEAN MANAGEMENT LLC,0055581,"Apartment 17, Building 3/6, Estate 15, AZ 5000, Sumqayit Azerbaijan.",TURQUOISE SEA MARINE LTD,6416181,"C/O: 'Pro Ocean Management' LLC Apartment 17, Building 3/6, Estate 15, AZ 5000, Sumqayit Azerbaijan.",PRO OCEAN MANAGEMENT LLC,0055581,"Apartment 17, Building 3/6, Estate 15, AZ 5000, Sumqayit Azerbaijan."
9412347,DREAMER SHIPMANAGEMENT LLC-FZ,0032244,"6th Floor, Meydan Grandstand, Al Meydan Road, Nad Al Sheba, Dubai, United Arab Emirates.",SERPENTINE MARINE SPC,0138693,"C/O: Dreamer Shipmanagement LLC-FZ 6th Floor, Meydan Grandstand, Al Meydan Road, Nad Al Sheba, Dubai, United Arab Emirates.",DREAMER SHIPMANAGEMENT LLC-FZ,0032244,"6th Floor, Meydan Grandstand, Al Meydan Road, Nad Al Sheba, Dubai, United Arab Emirates."
